DW_ENDERECO;address_number;city;country;customer_address_1;customer_address_2;customer_address_3;customer_address_4;state;zip_code
cd6ff2c03b906482f3ae73f4837f6ae5dd1f818ff49ab5a7649bb7e1f0ab402f;10021286;"";"";"";"";"";"";"";""
ca1bbcd5874e2d9303fac27865bf44bc769692f4509bd011b7ec30247eb87b08;10002489;Villa Rica;US;PO Box 266;Não Informado;Não Informado;Não Informado;GA;30180-0266
970e75a5ea4d1e0da2b9e617124e1f8518cd6ac3add0e9d683f7726f2cc77df3;10019420;Ruwi;IR;PO Box 880 PC-112;Não Informado;Não Informado;Não Informado;Não Informado;Não Informado
3853339e4810724fad102c6852900bffed472d93b19b4e7c2a8ee951d586941f;10011499;"";"";"";"";"";"";"";""
20c32ed24602a0cfa131f75aa6f2257d5e1d3dcc2bdc66c1c7943cccffca951b;10025791;Prineville;US;PO Box 667;Não Informado;Não Informado;Não Informado;OR;97754
fc0f770d047a531349ac0b2c1f1907e68ab26b6bc16620797f45cf09c78284e3;10027340;Salem;US;63 Bridge Street;Não Informado;Não Informado;Não Informado;MA;1970
96dac229dfe2ffdc26c64294d018d21ad000490f74d5774ccfdbe682d15523a6;10025392;"";"";"";"";"";"";"";""
6e1316c67a1d80eb276d8daef97f2dddc98009816ad32ecc84ce6335706123b0;10021179;El Cajon;US;316 Millar Avenue;Não Informado;Não Informado;Não Informado;CA;92020
232d06a0ef737ab0e6da00cb09a8693288e86fb00bb7667484dbbdbd487f6446;10020449;Santiago;UK;Attention: Rodrigo Yrarrazaval;Jose M Infante 2320 Nunoa;Não Informado;Não Informado;Não Informado;Não Informado
9921823aae26fc783c9f9e6d541cd5896a58f76ca96ef0c1b00eb2abaa39fd50;10027381;Tumwater;US;2649 R W Johnson Boulevard;Não Informado;Não Informado;Não Informado;WA;98512
76adf7ca813688c7827c9a9d9aedd036f64074fd47ee2d4e69582a129c428836;10025284;Hayward;US;19745 Meekland Avenue;Não Informado;Não Informado;Não Informado;CA;94541
ec17e85d26fb5e55d1b4588b987333eeb4faa273ae4db90860e4c07115ee08e6;10024006;Columbiana;US;PO Box 57;Não Informado;Não Informado;Não Informado;OH;44408
9b82e25489c20d532067b2a133c6a41f6a9e8e800a2dd285c81bc7318d0e5719;10009907;Elizabethtown;US;PO Box 2143;Não Informado;Não Informado;Não Informado;KY;42702-2143
a26fefcd0e4c286b8ca9c2312a7536b9cadc28ca3bfa14ecab67bc5013bdad2c;10007355;Amarillo;US;3601 Amarillo Boulevard East;Não Informado;Não Informado;Não Informado;TX;79107
8c59e34a4270b330a8b5c68de0abaf486e674066350bd77a81475bd1982a055b;10024524;New Hampton;US;PO Box 511;Não Informado;Não Informado;Não Informado;IA;50659
767801c11f79978a27cbab0de588d05352e4d4e665778b14d64217c8cae161b3;10012851;"";"";"";"";"";"";"";""
f8cf7063c2a15a77c2161f9f17c58d4afbf6e6c8b49ad1bfb9977260db9cff79;10019812;"";"";"";"";"";"";"";""
df93006a5905a02537f1d4364bb274503f281582ad83c61677f3c44e3b5e7698;10025021;Depere;US;1151 W Main;Não Informado;Não Informado;Não Informado;WI;54115
e2898828c59671d258136deb37f30c60bdca29e7b48cb0bff00a93fb342cc3e3;10007123;Little Rock;US;PO Box 194255;Não Informado;Não Informado;Não Informado;AR;72219
32b4c959db9c229733e8b54eff0769e9384754e41e970c077ef3dc025182afa0;10018363;Panama Rep De Panama;IR;EDIF N 4141;Apdo Postal 642 Zona 9-A;Não Informado;Não Informado;Não Informado;Não Informado
f1c692ba5f9c95fc9e88abf54b7694efa85fab067c7f428fa1df20aea8f86920;10025034;Corona;US;395 Smitty Way;Não Informado;Não Informado;Não Informado;CA;91720
f3689e4e3b3016447b5935e0abc7a3611999f988af1c3cf40308c7c633772090;10022168;Cass City;US;PO Box 113;Não Informado;Não Informado;Não Informado;MI;48726
3ba418b7c517c2a3c17ed84c568be1b92b9555d00f113fcb2ec8809e29415e5d;10020914;Calhoun;US;PO Box 547;Não Informado;Não Informado;Não Informado;LA;71225-0547
42fdb5030cad5e3756a5dd7e00cd32b1478e9534b601f393c68eacb94ea36a84;10023538;Fort Worth;US;Attention: Accounts Payable;4900 Alliance Gateway Freeway;Não Informado;Não Informado;TX;76177
20611d3804b080eb64c00fd5d044086a8e6b56a9e633cf93f54df9f975dbb50e;10023760;North Hampton;US;60 Lafayette Road;Não Informado;Não Informado;Não Informado;NH;3862
2a35c7532b450d61de7ef8569e244bb7bbeb757fee92ce07b17779dd382d5436;10009652;Valcourt;CA;550 Du Parc Boulevard;Não Informado;Não Informado;Não Informado;QU;J0E 2L0
b2cc37eb1e5ddbd92a8bf663a67af375be609df61addb16b2210403817b19e66;10022732;Lake Hamilton;US;PO Box 900;Não Informado;Não Informado;Não Informado;FL;33851
f4c0bc6e9cac3ca0a19ef32091bc702da598113d5bbb4a396a3268624e262825;10019879;Duluth;US;3564 Buford Highway;Não Informado;Não Informado;Não Informado;GA;30096
776fe73eabc7bd11bb9b00b9bba099beacc3f16d1b48e3f884de5a50c63ee579;10003882;"";"";"";"";"";"";"";""
eedce64c8d0e6be9efd43658ac448ae49b84c67d71cb793c802807448fbbe9ea;10026861;Salt Lake City;US;2280 South State Street;Não Informado;Não Informado;Não Informado;UT;84115
f0f31371f5b55812781117880f56b7a8c99920b02932a80932f794ceea9f5d54;10020909;Canton;US;Attention: Accounts Payable Department;PO Box 8844;Não Informado;Não Informado;OH;44711-8844
87e79c41ec870317350fdec925f15dce61a879cf36e8057bf11a1f075b1c905c;10011360;"";"";"";"";"";"";"";""
5f9515f0634e0389a1a191c2db3d9d07f225180a25a6188e1876c4fae127dec9;10014238;2215 TC Voorhout;IR;S Gravendam Seweg 53;Não Informado;Não Informado;Não Informado;Não Informado;Não Informado
95cb542e3bbc266158d11049232e97c65a41eabf0a83474f27afd4c1ac2a2346;10011979;4100 Porto;UK;Rua Eng Ferreira Dia 241-243;Não Informado;Não Informado;Não Informado;Não Informado;Não Informado
d60918bfcecd6bcf7b81cede26c20d3ad1b5f1e09b97cd3fefe25b82ec3ef2e2;10007866;Sao Paulo;UK;Rua Sepetiba 464;Não Informado;Não Informado;Não Informado;Não Informado;5052
a54543c30a304a9d5c83343a30db16c9cff8e075dc16ca4a1650216b57b84923;10016780;"";"";"";"";"";"";"";""
042922a544c27dca2b407b31e66c5a0379718fb4601e4d8023737677fc94e4ea;10000472;Van Nuys;US;8000 Haskell Avenue;Não Informado;Não Informado;Não Informado;CA;91406
31de30aa675d14b8e4afeefc9db7f0c2ce8a35233d9363c82ef0b65558b1012e;10016858;Beaverton;US;6590 SW Fallbrook Place;(Commercial Industrial);Não Informado;Não Informado;OR;97008
869dd42ebe80f13ff31195951ca6638ea688f1bd79b3f9a97af5aa1a7b4e9239;10021231;Middlebury;US;PO Box 460;Não Informado;Não Informado;Não Informado;IN;46540
d4e6d29615ab336ebff7488732c28f6b8f04a32abce514ac8db1ae8a280068dd;10009679;Meridian;US;2400 Highway 19N;Não Informado;Não Informado;Não Informado;MS;39307
e13c01d00af15bcf638f9f9159d8a0e38d71d963821c41a5c575664f31f6750c;10027560;Odessa;US;3356 Kermit Highway;Não Informado;Não Informado;Não Informado;TX;79764
8faa2fee7de4f7329afcc6ccda00363a6b90d9887b0a45b8d64ee1893e168dbd;10013079;"";"";"";"";"";"";"";""
12c6268ea8927fc274e0f131b9d1c6b813b83e2bf56c411fab28ba34f06128c3;10021242;"";"";"";"";"";"";"";""
7d3397520cc9dfa955b3e3954ff4fc21a3d3a23c12053e1598fd98a0ba61654f;10013899;"";"";"";"";"";"";"";""
5371a9d2e9cc5c240a88b4436c9c84e188fd3a8f207028de76e6da01aa95d187;10020247;"";"";"";"";"";"";"";""
5978e06198fcd17f30f37510dd1b50ee6344e13ecf1c646adb6d5cbb22493945;10012425;Oslo;US;RR1 Box 9;Não Informado;Não Informado;Não Informado;MN;56744
e274ccbb4873c7f40bce5bf5e21986936734f8088cfa1d5e6a0bb00cb250d95f;10015783;Philadelphia;US;Attention: Anna Markert;3111 W Allegheny Avenue;Não Informado;Não Informado;PA;19132
caa91e5924c10daeaa2eefa1e476296fcba26ff4354495d6f0b87c642132b575;10010832;"";"";"";"";"";"";"";""
1b6d8fb6830999fcff69c76b9ff09286b5e670a009651021380ee7975f40af9b;10014546;Phoenix;US;Division of Western Truck Sales Inc;3530 East Washington Street;Não Informado;Não Informado;AZ;85034
4961345213b24286b0ee6538b1fb2cbf80eae3de59763c2deeb3a9366476a231;10016542;Greenville;US;Greenville PDC #23;52 Bruce Road;Não Informado;Não Informado;SC;29605
4bc6b79e7de1da31e7fac7b933e936b49ca4e93c3a13666ceb15dc3052531f28;10025248;Kent;US;730 North Central;Não Informado;Não Informado;Não Informado;WA;98032
311983a8bcf2eefcdd104b902de05da25d67d23d73c33eceffe6a6c8c28bfc0a;10021668;Independence;US;13208 East 40 Highway;Não Informado;Não Informado;Não Informado;MO;64055
15aaa9bd08a56dc0e1379cbcea224f690d40d890e57d13f38666aea14e2c5b0f;10025575;Beamsville;CA;PO Box 640;Não Informado;Não Informado;Não Informado;ON;L0R 1B0
7722b899834ebe22d305da3f79bcb281c5e8218327d12acabe0557e12f4694ff;10025242;Seoul;AU;Parts Division;140-2 Kye-Dong;Chongro-Ku;Não Informado;Não Informado;110-793
46789417b4e427369193957cbc5f4554f86393297f1fa72b70b2fe13a5389511;10025288;Furstentum;AU;Kirchstrasse 39;FL 9490 Vaduz;Não Informado;Não Informado;Não Informado;Não Informado
6ad8c468083438e5a0ebdc56e8bd091b353ab620a466966917cec3cc3f2e5551;10006846;Modesto;US;1023 Kansas Avenue;Não Informado;Não Informado;Não Informado;CA;95351
485703703ec974941cca267a500d7e1938a30a74b6c54bdc1aeffccc10523c2e;10000475;Charlotte;US;5745 N Tryon Street;Não Informado;Não Informado;Não Informado;NC;28213
96707cd24b3b7edb11b4eb9e87e65954ac7b7c358eb26a9b97731d7a407053a9;10019880;Somerset;US;New York PDC #20;Attention  Accounts Payable;PO Box 6750;Não Informado;NJ;08873-6750
68cdbaaf7cf84390ae3e8cbbf32b9f83e72386142e65e4979b8f7a3ddab66c68;10000453;Não Informado;UK;Não Informado;Não Informado;Não Informado;Não Informado;Não Informado;Não Informado
912fe797c50ca35869581e79358e1b8d7bf902debf8182a9fcde82e06ab7c378;10014739;Tulsa;US;Division of Parkhurst;15051 E Admiral Place;Não Informado;Não Informado;OK;74116
15fc28a8276efcfe8d967a701b66eec983d54b1d572aa01107abf38c53158bf4;10020184;Smyrna;US;Corporation USA;Nissan Drive;Não Informado;Não Informado;TN;37167
e9beee20a9446728c1b2ec58baaec45ffdeab564213916dbb2bbe1c71d9c86c6;10027572;Elma;US;2210 Bowen Road;Não Informado;Não Informado;Não Informado;NY;14059
acd0cc97d9cb0fe6e7a14ae5c529b97f2d07564f4434a67fe348ba2772540136;10024930;"";"";"";"";"";"";"";""
03ad2010aa65c07f47cd06193db1a3e85de3a59cea6ebab6cc370089694dd5c6;10025287;Brookfield;US;PO Box 366;Não Informado;Não Informado;Não Informado;WI;53008
12091a9b455ef3e75195e0f4d931f36d20b77cff5a2e34b0a844cef633395416;10017585;Milwaukie;US;11811 West Silver Spring Drive;Não Informado;Não Informado;Não Informado;WI;53225
e7264f4ed99f2ae3dba98d665f07d06cdbec56d993f8167987251ac075fbbd7d;10013472;Indianapolis;US;3343 Shelby Street;Não Informado;Não Informado;Não Informado;IN;46227
d5513815ce2bd85a770afc3387c9a5e394f8459a3d73ca3948414cd8ac0eafeb;10017638;Roanoke;US;Advance Auto Parts;Attn  Merchandise Accts. Payable;P.O. Box 2710;Não Informado;VA;24001
5df515908aca8fe25870e1215cfc65d42327842d985d7918c97fa288322b2805;10012157;"";"";"";"";"";"";"";""
df01fc9dc8bcc92ac04ca6936350abe6a2c55442943bf5acd9153bf7c0ad0161;10017852;"";"";"";"";"";"";"";""
a53ecf4a73ec5584c497bf51ddcc933d810d79a440a5286e587ede3b67e2e765;10007120;Rexburg;US;DBA Pronto Jobbers Warehouse;PO Box 409;Não Informado;Não Informado;ID;83440
dd90026e4975b5816b41d94a1f0230106e97b4932aedca15cbc7550bbd0c54aa;10019617;Spring;US;2445 FM 2920;Não Informado;Não Informado;Não Informado;TX;77388
e73b297e84e9caaf4d04f9b18a1641ac435ca908f5e3fbe21dfff2a46735dfc9;10020868;"";"";"";"";"";"";"";""
b76631b99db0455bf5e5b7cb2228953dedc7d930292049b02cc08a4eebdde522;10000455;Huntington Beach;US;7392 Count Circle;Não Informado;Não Informado;Não Informado;CA;92647
53b863db1352da87700a0b63af083f0ecd2498279da1b5801f93ad6a8fc0e02e;10021986;Livonia;US;S&PD-Special Accounts Sales;PO Box 537940;Não Informado;Não Informado;MI;48153-7940
e3f197d42e5c2ec0ef43b32a61676bfa2d645747d8047192ec9a800ca79b4ddf;10013238;Janesville;US;PO Box 5222;Não Informado;Não Informado;Não Informado;WI;53547-5222
d9a70101fb9119941f7eda7dd0d2f6670b6ddd9d41362ba9e95df91050d04298;10023221;Overland Park;US;Attention  Accounts Payable Department;PO Box 12990;Não Informado;Não Informado;KS;66282-2990
15d40f6a8310344dea3bac8e422ead3730c7db7f94d5ca4276671ed71b2a6000;10025051;Anchorage;US;1301 East 64th Avenue;Não Informado;Não Informado;Não Informado;AK;99518
779f45837e8fa804b7e4578dba665278c364f3fcc58112057b6c5f220e603c2b;10025495;Birmingham;US;PO Box 100603;Não Informado;Não Informado;Não Informado;AL;35210
4f8b4231ef5e740b19000d54d05f5ce39d6187d301a090487d65dd74aae17d30;10013397;"";"";"";"";"";"";"";""
4671e43eaf15e7cf3c69812066661cff6a57adbf6fb801850b35095580d8d0c0;10010698;Gardena;US;17010 S Main Street;PO Box 88;Não Informado;Não Informado;CA;90248
f3fd587b98a0f48b0a5145422c401fdd7bb259866fd57cdcdd316dfe44876d82;10025289;Fresno;US;3631 South Bagley Avenue;Não Informado;Não Informado;Não Informado;CA;93725
9a0db21773800129726d4a8a6847aac636ccf05eab2b5af8b9826999e44587f6;10006862;Pearl;US;4410 Highway 80 East;Não Informado;Não Informado;Não Informado;MS;39209
2cdfacad82351604a9eb5079cce806be45f53511eb56ab9c3d680245e1d2b149;10019066;"";"";"";"";"";"";"";""
a2ec11d86504f6ec2e5a8b9ef1c1816ab57b5fe624df9f1816264054d711a1e3;10013871;"";"";"";"";"";"";"";""
e0b2188883c6a08c621d410c7118bde9f85ec3b7c2b97c1fe995adc9e1b8d7a9;10025247;Pittsburgh;US;390 Fountain Street;Não Informado;Não Informado;Não Informado;PA;15238
9ee5199bc6e0f757153ad3051e4045a85c8f31a29874af154cfc369058aa1f06;10013127;"";"";"";"";"";"";"";""
431b13089c315c3d33767350463b6eaf862f9ab7f92ad5f0b33fc76975ee170c;10005376;"";"";"";"";"";"";"";""
68efa96bd3cd20dc13c973d758578ba43d36184fd5714d4fa09d22d01b743713;10023489;Sacramento;US;3248 Auburn Boulevard;Não Informado;Não Informado;Não Informado;CA;95821
02723c1ae81ec11ca10b3606a80f15fa8529b06058f15500b02b694bd4ffddf6;10010974;Chippewa Falls;US;13296 County Highway 00;Não Informado;Não Informado;Não Informado;WI;54729
38bfe78faf90bee5b4ee61161d2ceb69b225e71d19d844132ad9424e79198250;10025583;Nesquehoning;US;One Industrial Complex;Não Informado;Não Informado;Não Informado;PA;18240
5a9e44d33f52238dd6450d08a604fd68ae8b6c5599852c765dd7648aa78e139d;10000471;Jeddah;AU;Al Thalia Street;PO Box 11605;Não Informado;Não Informado;Não Informado;11443
5af70cb891b43f98c0a90a87e9bef95f366cffec1f9dea263e55dc7a9d6bede7;10015011;SE-132 28 Saltsjo-Boo;AU;Svarvarvagen 14;Não Informado;Não Informado;Não Informado;Não Informado;Não Informado
fa750af6cc0b59ca7c30c046dab4fd6ad6568acc4f05c1ae6f587beb7063e109;10025353;"";"";"";"";"";"";"";""
9c1a5375e901ddd10499cab16f88553067bd71c973eb34d5cad63297baf8da41;10009672;Phoenix;US;Attention: Accounts Payable;PO Box 21502;Não Informado;Não Informado;AZ;85036
764e038f0fa4d5b76ced929c2b12f88b03d6da27376c482109bb790220f7ada2;10019942;New Castle;US;299 East Country Road 300 South;Não Informado;Não Informado;Não Informado;IN;47362
cdbeceb8334225337e7ee4879d4bddbb348342777bf5edff5555a4f8d7ab4c18;10022252;Crestwood;US;13907 S Kostner Avenue;Não Informado;Não Informado;Não Informado;IL;60445-2205
03b0e1cf7e0a645fbed13cbcbf4a46b33a3bdbf1bbfa7b62aad32b833d9031ee;10010912;Fort Smith;US;PO Box 849;Não Informado;Não Informado;Não Informado;AR;72902-0849
1abfb64f4560aabb02bdab909bbaf591c055a5253d201b74570d05679f3c84a7;10021911;Te Rapa Hamilton;US;Cnr Avalon Drv & Tasman Road;PO Box 20077;Não Informado;Não Informado;MS;Não Informado
76d36b306bb3ee3067cff73ec3012b40755da16e54e0cc69021ce4867b8e8bbe;10021184;Aurora;US;14312 Stenbock Way NE #F;Não Informado;Não Informado;Não Informado;OR;97002
b8d09e02db732beff9f08ed3884a160cade8d52939cf2ab4070442b65521eb60;10022730;Warren;US;21533 Mound Road;Não Informado;Não Informado;Não Informado;MI;48091-2991
4e07c99d3f334a6bbcd9b062c3c6707443d48a8b930b20d5159646010ed45898;10002142;"";"";"";"";"";"";"";""
179a4f10dc3cbb07577d396a168ddafea5df1084fb29718974e2d2b181fff2a6;10016334;Overland Park;US;Attention Accounts Payable Department;PO Box 12990;Não Informado;Não Informado;KS;66282-2990
d6a05d6c18a4d466edb12ce58113450a9c8f2215d0ed6045e2ecc30d84c0b304;10014810;Canton;US;Attention: Accounts Payable Department;PO Box 8844;Não Informado;Não Informado;OH;44711-8844
89b254e63ef4c5d9fc068ccd2e54b26066fcf3525bf8c4cb9813a349c680abba;10021300;"";"";"";"";"";"";"";""
0fd24c72c7787d291dd5aad0e4f471c2b39e2256b00ca4816fda3ec890ff4d50;10019909;Shawano;US;500 Airport Drive;Não Informado;Não Informado;Não Informado;WI;54166
4e143ec5942d00ff2ad988d2d56a952ea1d6765f59dfbc320540384f91ea870d;10011821;"";"";"";"";"";"";"";""
6c89fdad2ec15cd71ad42cb902c2d94b72113d21864cf755fb979527de014a9e;10025239;Não Informado;UK;Não Informado;Não Informado;Não Informado;Não Informado;Não Informado;Não Informado
0bbe89cc33f7b6f9b3b119e0f911fe6fa4763a61f357af57a3fb4bf620a3c0a4;10018628;Tigard;US;12805 SW 77th Place;Não Informado;Não Informado;Não Informado;OR;97223
200d125e35485ff3f2764fdea33a6276b720530d340531e5f12399ba5d0bd7ea;10025061;Canton;US;PO Box 80509;Não Informado;Não Informado;Não Informado;OH;44708
3be84b57f490ce080f3aeae6cfda31b16e08411b55e08fa22800a8438e670cdc;10002220;Prince George;CA;1594 Nicholson Street;Não Informado;Não Informado;Não Informado;BC;V2N 1V6
e9e119407fe26b4d68a134ee677122442d43d15424db499270ea332e48fd50c8;10021222;Buffdale;US;14296 South Pony Express Road;Não Informado;Não Informado;Não Informado;UT;84065
27706efaa2f67a6746e3c96b8ff4b7e84f60f242625cd8cea15ae0a881b4fde2;10023023;Thief River Falls;US;600 South Brooks Avenue;Não Informado;Não Informado;Não Informado;MN;56701
2ed3c59425dec64daf9be655a1e316323f30e75b29427db40272efea18b184c4;10014264;Springfield;US;1935 S Campbell;Não Informado;Não Informado;Não Informado;MO;65898
22ab762d81329c6645a3347b05ba29a5857347a01faa737dffe34e0b3ab2dbfa;10025515;Jackson;US;3650 Bay Street;Não Informado;Não Informado;Não Informado;MS;39213
0c373356936380b4b75d3cb3319a5be06ad23a1d40ac4426680b445892f299fa;10009660;Augusta;US;PO box 204658;Não Informado;Não Informado;Não Informado;GA;30917-4658
6bfbe29b362886c7c534a6d2987a3772ff7f496b2537690dab1239d953c3d039;10012600;"";"";"";"";"";"";"";""
a024b049a3a3944cb77eb43b5da2b7396c98e2e60325374f6c773886d353d63e;10002244;Statesville;US;Spicer Clark - Hurth Off Highway Div;1293 Glenway Drive;Não Informado;Não Informado;NC;28625
c420b9eb6660020d8ee3c16a164cdd6422f89b1d43f615c57eb297246f05d86a;10002240;Medford;US;50 Mystic Avenue;Não Informado;Não Informado;Não Informado;MA;2155
40fc7b3c339689c5f9e5cac5b4da52e08dd8e9a75025c7810a4e55631671d54c;10010923;Seocho-GU;AU;231 Yangjae Dong;Não Informado;Não Informado;Não Informado;Não Informado;137-938
18be392e5028bcfedbe417d5562265a422bf0e11408bfb64f7e9d794f7cf1136;10003857;"";"";"";"";"";"";"";""
b0975cbafd24a4461ea0f4a030978be00d762b2d17be9036da69805de66348f1;10013052;"";"";"";"";"";"";"";""
72615e670b05571a6103c0c85d274d6928937103e1bc02efe644f29876fa51bf;10002140;"";"";"";"";"";"";"";""
f65159ad3ca99d2da324a3c07cb7e2f7cc07115824ae908c724bb22ffc465423;10027370;Madrid;UK;General Pardinas 112 Bis;Não Informado;Não Informado;Não Informado;Não Informado;28006
f6b778597c49794047db5ca38312e7bb73c5efcc4271684e782f007b84666cae;10000486;"";"";"";"";"";"";"";""
cf72714da0e6d024ca32b99d1af0946c16805d018c03c3e89e565fbeed799d45;10016588;Schertz;US;6025 Corridor Parkway;Não Informado;Não Informado;Não Informado;TX;78154-3214
b42dbb0af7026a73cd497e38ce0a7ce1ae8242670d7ed14e30e2e997b9b0b554;10014802;"";"";"";"";"";"";"";""
b1cba3e22d9d36043bd9ce8aaa145cfbc92b434a41e330a7d721e18f70d3a27c;10007117;Taipei;AU;8F No.19 Chang Chun Road;Não Informado;Não Informado;Não Informado;Não Informado;104
b0128aed2fb8efb73e7d74b1e0152f49e8317cfbd05f4620877511643803121d;10004256;Portland;US;PO Box 20505;Não Informado;Não Informado;Não Informado;OR;97294
a9ffe85e4e04946cbefa9054ee066e8f0872bba1eba441676a1012c46d95e713;10022434;Placentia;US;PO Box 958;Não Informado;Não Informado;Não Informado;CA;92670
d497200fcd07ae4455e5034ea2cbdceb905edebaaadd863a65c5a2b491a4f375;10025778;Pomona;US;1143 W 2nd Street;Não Informado;Não Informado;Não Informado;CA;91766
1f1d4c883fa748180d8631df0ac02705fdf93abe5f76c1e8811778e61a74fe0d;10013341;"";"";"";"";"";"";"";""
e75f2db81ed2a518365821b1cfc10979b14529c507c1b169264defc1b9c55c1d;10024999;Andover;US;RR 2 BOX 9;Não Informado;Não Informado;Não Informado;SD;57422-8811
ad444fe20555f10af3042a79fde50caf3c375e37cb4a240a3bef0137089a1caf;10018665;Wester Chester;US;1028 Saunders Lane;Não Informado;Não Informado;Não Informado;PA;19380
c375c768f390677ba0893bbba8ef182d4388b14ee1b3575693549bd1c1bcf972;10009653;Mississauga;CA;3355 American Drive;Não Informado;Não Informado;Não Informado;ON;L4V 1B3
7fc18968bee1bb70584f3ba8b8c1266df5708dd19a7de6c4e932bfc36d7ba3a2;10024704;"";"";"";"";"";"";"";""
8b1f9153f0746db929e91c2ca9d84f3e82d7b9a8ad53c71a267e60587fb3c206;10014469;Livonia;US;Accounting Department Service & Parts;PO Box 537940;Não Informado;Não Informado;MI;48153-7940
a938735afd7e8e85c804ab1016fb706e36bdba29a6f9e14713c92bf969a3dae3;10014803;Grand Rapids;US;3056 Eastern Avenue SE;Não Informado;Não Informado;Não Informado;MI;49508
b0f090e4410a49928859dcb8bced4c71d1fa3cd2ccbc9f3d033f14277e74e10e;10025040;San Antonio;US;6127 San Pedro Avenue;Não Informado;Não Informado;Não Informado;TX;78216
b2808bfa563ba6e9fbfa45fe344a693cf7ca0ba16db33dac058df6a11f34ed26;10007591;FIN 00710;UK;Hiekkakiventie 7;Não Informado;Não Informado;Não Informado;Não Informado;710
5d9004c9322760e654e5f7571311702702576a62440d7b4cbeb272867f43038b;10021415;Indianopolis;US;100 Gasoline Alley  Suite A;Não Informado;Não Informado;Não Informado;IN;46222
96921edad85e5b9ab6969e4eb76c47c6d7499123f81753dbd195983fa39f9cdf;10025252;Elkhart;US;PO Box 4405;Não Informado;Não Informado;Não Informado;IN;46514
5a0099885ccd61c4b3412c37df6555e7f7288931fc1b96ed452ca78585050fb0;10026268;Surrey;CA;Unit 403 - 17665 - 66A Avenue;Não Informado;Não Informado;Não Informado;BC;V3S-2A7
5df2398e28935bd7e6f584e229b19ab044286b83a8bc573a445598d46a57442b;10013572;"";"";"";"";"";"";"";""
07b1ff36ff4254397b5d36f59530a223d58b633b506c4d58a00a988e2f578fbd;10024248;Portland;US;9440 North Whitaker Road;Não Informado;Não Informado;Não Informado;OR;97217
73761ab0737c7506cce81eceadb0d2a4dc6ee95ae771375054ed577f50ca1999;10000461;Boucherville;CA;1391 Gay Lussac;Não Informado;Não Informado;Não Informado;QU;J4B 7K1
02e39f139a5242066349c7629ea1f34e7e92c1f6bd0dc64244d0f56a38a66b20;10022962;"";"";"";"";"";"";"";""
06cfff32dd3675a447b423442c83485c155c469a999b0c7816823e2a34b417b5;10011981;Missoula;US;PO Box 2640;Não Informado;Não Informado;Não Informado;MT;59806
40bc855832d44ec6f3099510f565c0fbaa74e2e333556eb19dc6f0e061542221;10019388;Ft Collins;US;1101 N College Avenue;Não Informado;Não Informado;Não Informado;CO;80524
35c5a7cc376af8931f21577fb1f48f11d9c928705d26a84cc21329efe104db56;10026078;Bedford;US;PO Box 461090;Não Informado;Não Informado;Não Informado;OH;44146
df819df1900a31252d431ba5fef5161e23144a2829f259318ea97e1e739b0df1;10022444;Livonia;US;Detroit Technical Center;37002 Industrial Road;Não Informado;Não Informado;MI;48150
56fceea3afdf6480346fa21715e7d2637ca9cfa222b1b228212101e127a7446b;10019665;Hammond;US;7940 New Jersey Avenue;Não Informado;Não Informado;Não Informado;IN;46323
52c1f6685bc07fc701cbe0ce33ad87e928dc708ac2bfb9dad1fccfd75728c82f;10020491;"";"";"";"";"";"";"";""
6140a8d0a8e0dc4920a0fa60fe1665339ba39057bdfb0d62b2212787d48b3799;10023785;Columbus;US;Defense Const. Supply Center;PO Box 16791;Não Informado;Não Informado;OH;43216
81d5610d82684d1987ea665dbe38df9a370b3e51f13f65f4e4a7f04140cb39dd;10000474;Des Moines;US;PO Box 3265;Não Informado;Não Informado;Não Informado;IA;50316
4f72da41a9227542cb1bfbf87c41ed802d264e80ffc05d1a6595b8007326685f;10019664;MOLINE;US;PO BOX 8808;C/O APSS;Dept. 551;Não Informado;IL;61266-8808
76dd1bb013d9fc608f403a7dee9cb9c9fd6530346af468d3b3cc4b4056adf459;10025552;Southfield;US;Order Processing Group;25140 Lahser Road Suite 282;Não Informado;Não Informado;MI;48034
e6dac1b440d89a7efaca9961ecd3e528a0a6819616bfd522f7864c6c6890310f;10023793;Holden;US;PO Box 249;Não Informado;Não Informado;Não Informado;LA;70744
9e830885f9d01af87bacf0b7511f16669e3a6ac6af2f14d920e0442a681b4077;10013426;"";"";"";"";"";"";"";""
85adcea6cf8200c1110d9449db7b21b62b8e128a5a8477b496f737ae6204b3ec;10020448;Regina;CA;1155 Mackay Street;Não Informado;Não Informado;Não Informado;SK;S4N 4X9
a9e36ee69e73beb0d528989662a59fa73d80fe95add92890af3724f95db8ac46;10004516;Lighthorne Warwick;UK;Vehicle Operations;Building 540 53G/23/1;Banbury Road;Não Informado;Não Informado;CV35 ORG
ada85fded530f8e4f93aa343798baed9d5878ef865c4b24c1dac97c463db9810;10016548;Mobile;US;4700 Rangeline Road;Não Informado;Não Informado;Não Informado;AL;36619
2447c40e19316109ac765942d0e1d25804786d6b325754712ae2f74d68310e33;10005810;"";"";"";"";"";"";"";""
abfc859a82ebd1dcb75d4fe24e8687d38219a354fa2bd21234f4d7676a5a94ca;10024022;Irvine;US;9950 Jeronimo Road;Attention: Sohaila;Não Informado;Não Informado;CA;92618
8ccb0e5773d7a7134ecdfa02c3b56023f5d27d300bc60fffa20ceda2bcb7cbad;10002765;Hialeah;US;4760 NW 165th Street;Não Informado;Não Informado;Não Informado;FL;33014
6d702d1629bc24c6e0cea28649be46dfa584b224ee975f7a3b8e4da4f5db4def;10022240;Mississauga;CA;1665 Shawson Drive;Não Informado;Não Informado;Não Informado;ON;L4W 1T7
af53849a05395a902d9ebfa4a514da6f17c3fec15c31ef3fb4079448e29443c9;10015030;Anchorage;US;2192 Viking Drive;Não Informado;Não Informado;Não Informado;AK;99501
74ed01ea449b40eb044e6ebd9de5d51720eddeffdd825207e1330dd6b6d93317;10012234;Hayward;US;PO Box 4658;Não Informado;Não Informado;Não Informado;CA;94540
6934d6a342d1ebb1b1248866d79368c578f899cc31256d055fc6b72be5482571;10025305;Colorado Springs;US;4260 North Nevada Avenue;Não Informado;Não Informado;Não Informado;CO;80907
843978b928a53cbfd787c8ff88ee6485e4da94ad0f127560e24ecedad4e90ef6;10000462;Hazelwood;US;6311 North Lindbergh Boulevard;Não Informado;Não Informado;Não Informado;MO;63042
7a5fae6a420fbca87e923a973e69a2bbbf779529999447743419164f0adb0ed3;10011018;"";"";"";"";"";"";"";""
f32dfb6dbcdc769cd13841a4c91a414cd3aa2fa5d881d4dd6d3bef9982b893e2;10002159;"";"";"";"";"";"";"";""
2474c0b697aeb5c76deae9a6bf7471c01bbdf23d9203dcf5e472c0b50803262c;10004207;"";"";"";"";"";"";"";""
d13a4051be914cca225d2a1415d791f107f14bc41e0657723ff029c53b74a55f;10026355;Casper;US;1275 North 6 Mile Road;Não Informado;Não Informado;Não Informado;WY;82604
f5aa575336ec83a89550a29d99fa036610272973b64b0b375ebf94d6a73caf43;10023244;Cleveland;US;PO Box 899;Não Informado;Não Informado;Não Informado;MS;38732-0899
c1e330d3cea32ab85fd109eb02ff657bda64f6cb4c446af296a7d5cddf58e20f;10019469;"";"";"";"";"";"";"";""
8dbabbc080d00dbe33ee4428dd27e7b4c285270110bf6f73436035bd1aaec941;10014047;Fresno;US;1510 Merced Street;Não Informado;Não Informado;Não Informado;CA;93706
ab75db4c9342efd46292acf8a39c22ead019b372855c301532798f8f40d4e24d;10009623;Gretna;US;2125 Whitney Avenue;Não Informado;Não Informado;Não Informado;LA;70056
591b8d3df082e2ad5724d65ee266edb7727a555f2e6a0ea1fa1e1bbf84c9b0a3;10012305;"";"";"";"";"";"";"";""
894044b5320faa5acb671d815507543210e54b9d71c8594b89a82485d21a5cb2;10025418;"";"";"";"";"";"";"";""
f61c3597722ebb71086a19f7005be07bf667cf6d0b5c688d4979fefa79825b7e;10024477;Santa Cruz;UK;Modulo 2 Manzana 27;Parque Industrial;Não Informado;Não Informado;Não Informado;Não Informado
df473818f35ebfededc614888f71d215d6e00f5475f113b0fad27fac603d3397;10011870;"";"";"";"";"";"";"";""
582e488ae6a38045e3632348e1e6aaecd2643170207550b7734971d90aa1561d;10007134;"";"";"";"";"";"";"";""
68e0668257701dd3f6d582dae08531fea1d6af1a89dbcaaa8ba515d36f2740ff;10023212;Medford;US;c/o Tom's Bronco Parts;2294 Sage Road;Não Informado;Não Informado;OR;97501
4a2ca955ddc8940bab06ad45f178e8b6a6082186fa81172cd97f557236b291a6;10016564;Traverse City;US;PO Box 2338;Não Informado;Não Informado;Não Informado;MI;49685
9ae27d52c20b02656d25c162e69f0baa47b30e06466c1e717b10c3822e3ba701;10000601;Creedmoor;US;1550 Aereli Avenue;Não Informado;Não Informado;Não Informado;NC;27522
7fcb617e2716686b9a7dd16389f75e25e90e10cb67a8d1806af53102c0b5a071;10005099;"";"";"";"";"";"";"";""
af1b667fb894f64497afd65914dbec8b33317f41a636eb67988d4adc918bc98d;10013332;"";"";"";"";"";"";"";""
3e6f2b8a170fba58081a116f517216f018dcc32be070b38aa13fc5d3f8ecf85c;10021239;"";"";"";"";"";"";"";""
9f42a2b9d1fca24bdc2f87295cce4bbf3e22fda9daefa51322b58b99fec3d5bf;10025241;Hamamatsu City;AU;RU-3 Hamamatsu Nishi;PO Box 1;Não Informado;Não Informado;Não Informado;432-8611
14ffad863ea5be06bcb11dfc987b13233be58986c76191934478bf2dcf02bb45;10021412;Clackamas;US;13101 SE 84th ave;Suite B;Não Informado;Não Informado;OR;97015-9733
56652aad7f551fef43b872b11f8f547768c60f0e820089cddb894f12ede2c594;10013509;Joliet;US;207 North Scott;Não Informado;Não Informado;Não Informado;IL;60435
49cf4e5fb7969b73eacc3138a9a0344df85bdb114e70e8f72ca10008bd12285b;10000488;"";"";"";"";"";"";"";""
654b432e61d3a8a77dd9ce38af1225952166fe28f31a4e336927c01b642702cd;10022166;"";"";"";"";"";"";"";""
850ee01df750d64c2f981288ee28dffb1b0ba93ec662c5366a94b3bd74795960;10027583;Morton;US;Attention: Charlene Hoyer;500 North Morton Avenue;PO Box 474;Não Informado;IL;61550-0474
0e9ecdb21ef4f1aaefa660b806af41479229d7e445ca76314a4448628820f581;10020864;"";"";"";"";"";"";"";""
6a2887db203b8252877508d5c5d3523cc903271426577ad81a845b2496978293;10002501;Não Informado;UK;Não Informado;Não Informado;Não Informado;Não Informado;Não Informado;Não Informado
2ecc7d505db891bee0948f94e3b4ca4ead02cc09a4b6e7cf804c9b322f3010be;10007457;"";"";"";"";"";"";"";""
623cdd182893bafaf2081c659ac248fccba244df8eaf20297859e5e845c4d173;10021470;Wrightsville;US;815 Hellam Street;Não Informado;Não Informado;Não Informado;PA;17368
a92f36e98ff779103479c5e7809aa963b1d62d9c3ec7a0ea57fc672abaec27a7;10026868;Valencia;UK;Aut Reg Del Centro Valencia;A Pto Cabello Dist Naguanagua;Centro Comercial;IL Portico;Não Informado;Não Informado
d85f27540f7d99d71de3898f26a27b92410b47043773b4c5c0f377175ead0806;10021145;Brookhaven;US;1127 South First Street NE;Não Informado;Não Informado;Não Informado;MS;39601
3f9ab5b2fb6742acc811fece2f60e58a4066d88f48b9b52a8db3529917e27e07;10026038;"";"";"";"";"";"";"";""
a25e76b975a99e762509d8e13df5edc5a47607cf5072afd2a635c38c162ccc4b;10020927;Sidney;US;One Cabela Drive;Attention: Accounts Payable;Não Informado;Não Informado;NE;69160
20f9d3b82fbdb3d3bd6d0aa0cd89e47874649d93d3c6c4f75f32c33a3aee038d;10002137;"";"";"";"";"";"";"";""
559352ab4c578fbe17808193885589c1522789d5978b51aadafe9d29025561ba;10023703;Istanbul;AU;DUMEN SOK. No:3 D.9;GUMUSSUYU;Takism;Não Informado;Não Informado;80090
418f002a798df47b43faafd158c41fa9db3bab39b15b5f6264311f8173cb8f7a;10021111;"";"";"";"";"";"";"";""
1ef265e17f6419bfbfd5eb614dd27b8fb23fc4ef7bfcb1ad17822ee0ad2b3b85;10023241;North Little Rock;US;7700 Counts Massie Road;Não Informado;Não Informado;Não Informado;AR;72113
abfb184a08268e8ca39e5acaf304a8c9927d065dc19a2858c7d65ad35ea9c200;10021204;Toronto;CA;480 Gordon Baker Road;Não Informado;Não Informado;Não Informado;ON;M2H 3B4
c31029576528a52a27bca5c156d749b2e878b0a5e19e18dafcf36cca36cf8bfa;10026006;Calgary;CA;308 53 Avenue SE;Não Informado;Não Informado;Não Informado;AB;T2H 0N3
65a2ba1d4bd7e3494b90274001cbb34f8215c0ebd3835aed612bbfd0c75430d8;10018868;Não Informado;AU;PO Box 871 Safat;Não Informado;Não Informado;Não Informado;Não Informado;Não Informado
f1ab9d02a80cb17c388cf3b7aaddaa326985479dbc33fab197f27bfd2dfcf6bc;10012158;"";"";"";"";"";"";"";""
2458dd35e4c2ad8ba7c36da17f83840e4d8d11e6aa87b6f956269c24e56f5147;10002153;"";"";"";"";"";"";"";""
f6b40c332407f348ba142d9b6fcf77cbeea925cf2ec63c8465e1d2ece33648a7;10005006;Boise;US;601 East Gowen Road;Não Informado;Não Informado;Não Informado;ID;83716
b7dff5220f8c334c1e955d4910daf434e648f5b0ce50d0b6ad3fcc972d8ac668;10021418;Wheatridge;US;10930 West 44th Avenue;Não Informado;Não Informado;Não Informado;CO;80033
bafff368385b73be2cb485cb130ff9ff77406ede603d68af6f35af5ca7c44612;10008134;Petersburg;US;23308 Airpark Drive;Não Informado;Não Informado;Não Informado;VA;23803
90f8a1d584baf7e6384369f25cba2d76b8bfc366886fafe85dcc7927eac8fa4e;10019105;Mechanicsville;US;6029 Mechanicsville Pike;Não Informado;Não Informado;Não Informado;VA;23111
9e14cfb0587e8d1d4bdc0d4b37f565d3d009adb4aa93846e7e336a37f0a8ccaa;10000499;"";"";"";"";"";"";"";""
59d6439fc7074a26b8fa45cf9a7b1dfcc68186cdfbab95cbb592852135e82add;10014495;Clackamas;US;12900 SE Capps Road;Não Informado;Não Informado;Não Informado;OR;97015
3577bc8d964f6e1d17dd1731448fb5895c1aad4de9f95f9b5b443e0327090f81;10025251;Wooster;US;A Scott Fetzer Company;3201 West Old Lincoln Way;Não Informado;Não Informado;OH;44691
e56a80e2366f66cb29b8278a0b909183300d176ff31d601be469e9cacb31a101;10027356;Grand Rapids;US;910 North East 4th Street;Não Informado;Não Informado;Não Informado;MN;55744
016b8218a1c4fbeafc9110cd43d2882e735428cf4dc61d4e3053dfc5fffdeed7;10017576;New Orleans;US;PO Box 10455;Não Informado;Não Informado;Não Informado;LA;70181
074962b35ce70f831ffe64a9e2aac8df766ccaf10491101efc35087c74972fe3;10019410;Edmonton;CA;6710 76 Avenue;Não Informado;Não Informado;Não Informado;AB;T6B 0A8
2883ddcaecc5388bf87f9670e89b2be5fd5b72d9bc8810040f3a2dde15864d86;10019952;"";"";"";"";"";"";"";""
47bebde3056538137735c18a32adb96fe2730bf7954fb0a27402cdefe2800eec;10021203;Costa Mesa;US;Los Angeles PDC #14;Attention   Accounts Payable;PO Box 5555;Não Informado;CA;92626-5555
0dd05d847c074e157bffce553dc000bfb5c47255206f3ca77087842a8f84bcc8;10019109;Sacramento;US;Sacramento PDC #13;Attention  Accounts Payable;PO Box 15279 C;Não Informado;CA;95851-1297
6f52aaa76c789a0ae31170636384d31c7590b75ef73542f48f8733fe707787c5;10018871;Livonia;US;Field Accounting Department;PO Box 2003;Não Informado;Não Informado;MI;48151
aaed4bc6ccb8ce815b04792b99c818e78dce0f013161a995f2c7471a9c2cb2f8;10022249;Shelby;US;201 Old Boiling Springs Road;Não Informado;Não Informado;Não Informado;NC;28152
f78bf12b39fcab0fb472ea129fa47e83e8a72583d7f16407bf5aa034ae542efe;10026839;Greenwood;US;1201 Sycamore Avenue;Não Informado;Não Informado;Não Informado;MS;38930
07b7cb0e618c398b88896cf510e54a53c5c91c240cf6d174053240a9c04cf256;10012715;Exeter;US;44 Tunkhannock Avenue;Não Informado;Não Informado;Não Informado;PA;18643
3242c90358a65169621ab4059faf3b0a649bbb8d2c9d0afa626ffab4de68b16a;10019913;Calgary;CA;10901 Macleod Trail South;Não Informado;Não Informado;Não Informado;AB;T2J 4L3
fce8c573c4dda7eeff48609eae65912950972fc7d936559e416e985e6be3838b;10027119;Não Informado;UK;Não Informado;Não Informado;Não Informado;Não Informado;Não Informado;Não Informado
7074995d25a2f76ee5336f7c1cef2ebc77c371d16bd08127b3875008dd11e3c4;10011398;Eugene;US;1942 W 11th Avenue;Não Informado;Não Informado;Não Informado;OR;97402-3519
48865b7ae0d619ee1df376f52b177b50b408cd87058b94ab8767c7c3ee866e1c;10000478;Little Rock;US;8120 E Doyle Springs Road;Não Informado;Não Informado;Não Informado;AR;72209
1fef6f8e710e987db7c6fcf9507e0be99404b4f552dfb8c3a2286aebf2cd1bdd;10014779;Fairview;US;PO Box 206;Não Informado;Não Informado;Não Informado;NJ;7022
1eb60cdf87a62e6fc969523c1b666f855b68fad94ea0add3b3e6937377b5ac3b;10000501;"";"";"";"";"";"";"";""
96e2c67cffd386595db172e4587f458016dcf8eb364bbff44cde6fcc3cd55d73;10026348;Mebane;US;PO Box 220;Não Informado;Não Informado;Não Informado;NC;27302
f1363592521d9fab53540cfb12deed390a3f3b9e79da1457163a93184f100446;10012161;"";"";"";"";"";"";"";""
cd266e02e7a684cc960bd1657fc9dfd0815ec14133acecd3772b80a58b065234;10021160;"";"";"";"";"";"";"";""
e976b921b93af03c195dd8da01c5a9f9acf2a28f24b38e45a97c8aa38d8093ef;10026023;"";"";"";"";"";"";"";""
13307e03346752577242de8695229e3e1404686fa4e75604064326ceaf11b5c7;10010990;"";"";"";"";"";"";"";""
55e54e6256a644b4aa1f66b3fdf44106fb00e81acb690592637d6538bd9adc56;10026521;Quezon City;IR;97 Banawe Street;Não Informado;Não Informado;Não Informado;Não Informado;1114
5a5432b0c753a3ef73f99051e8643cd6689f889a3ffd4b69fd3ebaaccb6cba93;10014059;"";"";"";"";"";"";"";""
36b84b0747912df5f809e11bd5da2c4221068ecf0f8e2191d90ff85cf4a5b084;10007566;St Joseph;US;2106 South Riverside Road;Não Informado;Não Informado;Não Informado;MO;64507-9799
bee5f5f8b8de1ab2ac6880a155ccc77d9ef7e9d4aa952f3d7ec1bc7a19f18c4a;10026336;Columbia;US;PO Box 26;Não Informado;Não Informado;Não Informado;SC;29202
154d7de3a58da7957a8a815b529bb362f0394c46d273556b22e8634cc4b1ed78;10025032;Montreal;CA;c/o Rampar International Trade Corp.;6260 Place Northcrest Suite 305;Não Informado;Não Informado;QU;H3S 2T4
8493ff94cb398e6b0acc47ff49b6dd04973613b7b446bb47db95c8340258b197;10020388;Glen Burnie;US;7216 Ritchie Highway;Não Informado;Não Informado;Não Informado;MD;21061
d1f542807d19ba11c91d3631a631df21376b6f789b85fb1a2cd382e66d92b153;10019512;"";"";"";"";"";"";"";""
af8e0afda4c7f0276bd226adb91b96177ef3bb4e9ccad800f2a159f527f28dcc;10017290;Bogota;UK;Transversal 49 No. 102-00;Não Informado;Não Informado;Não Informado;Não Informado;Não Informado
4399ba9796e407ef6816b5a70d04e2b5c32615290f98edeef3b24024df692bea;10009656;Trinity Center;US;PO Box 450;Não Informado;Não Informado;Não Informado;CA;96091
c4550d25297cc4df38aeeffc63622c78ad0615a5ec91d3c383ec722456a22c93;10026560;Dearborn;US;Central Accounting Service;PO Box 6005;Não Informado;Não Informado;MI;48121
08b97a47ed0d446e6706a0e30354672041b582b9d49c44186a97151977bff934;10013312;"";"";"";"";"";"";"";""
5354f93da2d9ab6554299131119046becd726fc08de826048fa154a631b75c7d;10020256;"";"";"";"";"";"";"";""
eee1eaad5a459d485839a46cb8b47aa6f8514453f27efbec62e16f4c23ddbd30;10009642;Joliet;US;812 Draper Avenue;Não Informado;Não Informado;Não Informado;IL;60432
f6be2653415d131c27febf0e854925d10a1b3b7850689d0b149a00e31b9422ac;10007536;"";"";"";"";"";"";"";""
98af1862d3ed30a71cb570c50caec26c4ac53f2cded55f3fad436bba0c2de500;10000480;Phoenix;US;Attention: Accounts Payable;PO Box 21502;Não Informado;Não Informado;AZ;85036-1502
bfe357c9274eef2760b134c378a3ad1af5f14f3c78e7f7bdbeb272d5326edafc;10019514;"";"";"";"";"";"";"";""
7e0567794cfdf1dc658b7ca7c4f713994ca13c137663c130c82dcd5e1febfdfc;10026294;"";"";"";"";"";"";"";""
3176c012c0778475aa8a94bf1e0f715c69633b9891781fd08395ed4ddc59a5b7;10020413;Okarche;US;PO Box 447;Não Informado;Não Informado;Não Informado;OK;73762
51a9fe8e5f11cccaa04ab530be33f9036f9568c353a4d41c464720eb9a95c707;10006037;Miami;US;7225 NW 25th Street;Não Informado;Não Informado;Não Informado;FL;33122
7a597d06bd3db55b12bc470c05333641c684a29ce678a9377514a7520456921d;10013538;"";"";"";"";"";"";"";""
c1f7a740d41957d4de0ea03218f2481a451105dc5f5aea22017e92f929ea0962;10007258;"";"";"";"";"";"";"";""
af2ec93efd1c622223b9c1450de2e448e7ac994f2e70149fd70e2b4b885c5a78;10012369;"";"";"";"";"";"";"";""
c9c3161cbb037dd204102777ef9e5ddca44b38ad852057f3da7c1b23ad56920b;10024725;Jasper;US;PO Box 174;Não Informado;Não Informado;Não Informado;TX;75951
b1a6a4ef168c1aae8e8c0d0d80d63f42995bec35aac2427ca25bbf7a2369694b;10025024;"";"";"";"";"";"";"";""
a6855e0abc7e989251b65355cf8cba3561b3d7af1223f9b066e152c10662906c;10023516;Miami;US;2900 Northwest 73rd Street;Não Informado;Não Informado;Não Informado;FL;33147
2ff07b705ec748775b56c09b2cd90fc487ff165dfd776d1b4e01154d07cd4c42;10020393;Fort Collins;US;2649 East Mulberry Street;Não Informado;Não Informado;Não Informado;CO;80524
30cfb7eb10b9ef327aa9b84a9083e04620cc2e29e2d88113df15361444e734f0;10020446;Pontiac;US;Worldwide Purchasing;1999 Center Point Parkway;Mail Code 483-550-200;Não Informado;MI;48341
f523a6bd088a2b3ea0b7936d2cf3647bada69ab0f79f4dfb4deae761a3429325;10011600;"";"";"";"";"";"";"";""
ea3804359380f752ae220b151643e6079ae6433e5938f82e979654e648d8a37a;10022490;Overland Park;US;Attention  Accounts Payable Department;PO Box 12990;Não Informado;Não Informado;KS;66282-2990
f5c5ada24955d11b013cb3742f14c66f1bae3fbfbda5c2e2b766e8b83a7184cd;10013188;Charlotte;US;PO Box 36409;Não Informado;Não Informado;Não Informado;NC;28236
0a0a85113ef6ace659dd7974f1eeff983fdaf15627652e55d8780216f82f5621;10014804;Shreveport;US;Attention: Ann Borden;PO Box 31435;Não Informado;Não Informado;LA;71130
c15df25a5c39f80be9b0bf0d087ee8b42bab2e457bd9b57787d251f9d8574df4;10021305;"";"";"";"";"";"";"";""
7d742a3bd5c084213806d4f84e122627981d58b4e2a5dd081cb942c23d724a47;10023783;Pine Bluff;US;PO Box 7647;Não Informado;Não Informado;Não Informado;AR;71611-7647
c1f75ebce613b9982d334be79aec26c90cb5cb499f132d0c9f5362df0b721954;10018644;Overland Park;US;Attention  Accounts Payable Department;PO Box 12990;Não Informado;Não Informado;KS;66282-2990
c077d6fac065e433090478df28e80e41a1ec4ae27f8fa08d4485d5184e532311;10002969;Manassas;US;12000 Balls Ford Road;Não Informado;Não Informado;Não Informado;VA;20109
eb258c51935750862367ef824388b3095cd68abcf3516445a0703e9f9557b797;10009885;Winnipeg;CA;PO Box 7100;Não Informado;Não Informado;Não Informado;MB;R3C 3B3
a2f1ec590d401d98ebc1d11f1311d608b7515fcd00cecb3082b22df8b27904a7;10011546;"";"";"";"";"";"";"";""
5b73a456be371c61c0684f2b6800fba646786fbac81846de5f1df6d0d59418f5;10022470;Ormond Beach;US;Attention: Linda;100 Business Center Drive;Não Informado;Não Informado;FL;32176
0920c3003c439bbef34e25db9d0dbd4748aa0a3f3db7f1185d225557170272d8;10021996;Milton;US;8 N Industrial Park Road;Não Informado;Não Informado;Não Informado;PA;17847
fe0cb62e6bedfa8edee6e7b0286e09f21f6cbe8b588a6a5601de1296821e1222;10025037;San Marcos;US;725 North Twin Oaks Valley Road;Não Informado;Não Informado;Não Informado;CA;92069
ee90a85e58bdfa532758234e8f0a554637c495ab19224372290ee67bf0907811;10021175;Johnson City;US;PO Box 5418;Não Informado;Não Informado;Não Informado;TN;37602-5418
dd5aacab16e8ea68d91cd111a83cb4396c9d55017e0dfba2bf4b6eb46ccafcc8;10002114;"";"";"";"";"";"";"";""
874878ea2d6f58d8f7fb0510e4672d8e2f6265b27beb0a4122c7d5d6055f883f;10020281;"";"";"";"";"";"";"";""
f8bc25bcae2f17256019a9f254d69a85c418250c25ad3270c8ea425fed689bb2;10020492;"";"";"";"";"";"";"";""
034e4c09bc5bf2f3815b162689736da1cd2031e02d3cba96625fcf0b914a5992;10011345;"";"";"";"";"";"";"";""
247ff8ab312f133e59e785bb9ec7780f503e60fc3ae8830d5befa48133e35606;10024016;Kanagawa;AU;1-16-33 Kotsubo Zushi;Não Informado;Não Informado;Não Informado;Não Informado;249-0008
bbccdac1558fa8b84e20c3d695428ae450bc0316024b04d114e55875bc8b794e;10020672;N-0598 Oslo;IR;Brobekkveien 105;Não Informado;Não Informado;Não Informado;Não Informado;Não Informado
663fa926ee5db475886ed678555d84151b838a2902c50a76fb75782f76f380f4;10027348;Tampa;US;6501 Adamo Drive;Não Informado;Não Informado;Não Informado;FL;33619
be8bef52f0b2120f0e0c52a62ab5a4fc349ebc1b93a13a2a3a70a7e3f2d3d638;10000457;"";"";"";"";"";"";"";""
94f62bcd4d07cf9cd600dfe8a39f0eb0f8791d36ba494b2fdcc3c6d17b29ec2b;10009356;Cape Girardeau;US;Global Motorsport Parts Inc;PO Box 1179;Não Informado;Não Informado;MO;63702
44f3d271098433d62cf553ac56e1e85e63c9f278fe5a4b3d194eec71271e285c;10007122;Buda;US;22015 South I-35;Não Informado;Não Informado;Não Informado;TX;78610
e52f10717b4629ab69c35bf287798cecbd572ca6f4f5a62e0d5539c4fc5a73b4;10009654;Brownsville;US;904 Billy Mitchell Boulevard;Não Informado;Não Informado;Não Informado;TX;78521
b854b345a21eb31a2ebe54177ee764b27c68263a1f8d6dcd88d313c10d58ebd1;10023447;Tulsa;US;Attention:  Accounts Payable;1624 North 71st East Avenue;Não Informado;Não Informado;OK;74115
9c2ddc28710d4369cfa71f633bba2cd66e64b103e4508a7acc21eff6d5176fd6;10025246;Winnepeg;CA;515 Oak Point Highway;Não Informado;Não Informado;Não Informado;MB;R2R 1V2
45fe752fd3acf8fd57b3e2846bbdf626a42fc53037daf3b83c623f9f1f52b62c;10026438;"";"";"";"";"";"";"";""
9d1e7c92a84738f980eedb365fae31420eba10600c0f13a5fa5ba04d464aeb70;10015253;"";"";"";"";"";"";"";""
baec975f0bf8b63272fd4813131663e3951ec1d5dbd2e6c813e9c07105e5a2cf;10021485;Hamel;US;FOB: Clackamas;Attention: Accounts Payable Department;PO Box 47700;Não Informado;MN;55340-0700
924e7cd77350a6c1b1b862614c0cb305c073843394df1ccf2643eb85d99ed8a0;10026062;Houston;US;2301 Central Parkway;Não Informado;Não Informado;Não Informado;TX;77092
8f7c731c6003e1e6296425c8f121b98376be606cea35111a5ba3c902548d5c55;10002128;"";"";"";"";"";"";"";""
939a5722c856a16a714db38b8ae0a89043a348fb6e5d7c4bdb1c50a3a1ba459c;10010886;Libby;US;522 Montana Avenue;Não Informado;Não Informado;Não Informado;MT;59923
f4f069014f22906b294c5ffe9923694e4df251dbd314d99da46e464afc72f5cd;10024880;"";"";"";"";"";"";"";""
2bb16f3c58415f393e0536f51da2c431945c7fad2ac9908decd023105d59148a;10012761;Cali;UK;Av 6A Norte 25 N 43;Não Informado;Não Informado;Não Informado;Não Informado;Não Informado
42ce69fe2dabfecb8dd844afc8e6bb8d8937c8f1e0b0e265043092f0d3de08a9;10026055;Eau Claire;US;5100 Highway 93 South;Não Informado;Não Informado;Não Informado;WI;54701
2b6092938b4cd646c26e37699df9d9b755beca2f32998aaf90a3c1c85de59c46;10000460;Goodlettsville;US;709 Rivergate Parkway;Não Informado;Não Informado;Não Informado;TN;37072
c9801f6448bb8d59104e4e9e142fde9e1a6b33bff4ce8a75eca666a9aa9a18e7;10013061;"";"";"";"";"";"";"";""
828981de7b0174632d2291423c1f811d6d5767ae576b6c1c629c7c49ca4b4bea;10007183;"";"";"";"";"";"";"";""
bc99ef52f670e0abf1367ae685ec826439a70d0abe05a2abea120e17b7b1c063;10025023;Saskatoon;CA;815 Circle Drive East;Não Informado;Não Informado;Não Informado;SK;S7K 3S4
f021dc4a379c2de9676a42c605e855b607975c714874b418f8b6354c2da99d3f;10011842;"";"";"";"";"";"";"";""
ea88e945d58e021c62d5a4d1227ea73aee0082479c5bef560dba525c7a47e338;10005919;"";"";"";"";"";"";"";""
f826e28a3195bc32f2c74f8b91416ff54ce3ba97c7d13a0db6ef01b4d69d01a9;10016303;Buffalo;US;60 Depot Street;Não Informado;Não Informado;Não Informado;NY;14206
65343b98a35491f6c54d0367e0f26c0b4a3500d9c4a37112d1b581e6a314b996;10021283;"";"";"";"";"";"";"";""
a9f04ead94077d7bcf5a125675d283ddbc4d47c880da8d6fc6182bed40bfbf8a;10023524;Clemson;US;PO Box 1006;Não Informado;Não Informado;Não Informado;SC;29633
7712442822b0dec3b4e3b59710c8bfbcec1119b1a2c7d1513c4ac65d3c810c5a;10025237;Oakville;CA;Central Accounting Service;PO Box 2900;Não Informado;Não Informado;ON;L6J 5E6
3c1ba8b6c2b9429dda14f661774da7bf0ef2c2c77a6c694547529285909460a5;10021380;"";"";"";"";"";"";"";""
8988e3e09ea4bfee04ab654a46789137bc91ac5c1807bf16a1b44a4edf26ecb6;10010865;"";"";"";"";"";"";"";""
e66ee0afa2578b00e86147898d0a94aafd5778e040adc17f792691bd0bcd9645;10006916;"";"";"";"";"";"";"";""
b2ec8ca1d422da3c6c5284fce76aeb2b80984dd693118b6e413f45e75860c906;10025558;Little Rock;US;6104 Young Road;Não Informado;Não Informado;Não Informado;AR;72209
0f5551da4d785a1209533e67c05a87b9b96f8a0ec1b74661c254539b61cf0591;10025299;Montreal;CA;6260 - Place Northcrest Suite 305;Não Informado;Não Informado;Não Informado;QU;H3S 2T4
db4b84dd35941e181aff8014281177e155b6837e8eb8b343a7982b50bb706181;10025304;Não Informado;UK;Não Informado;Não Informado;Não Informado;Não Informado;Não Informado;Não Informado
88ce2e6df1e6347eb04088d0a7981a6335b43ba351df6d9321376a70a6c5ed5e;10015793;Sacramento;US;3248 Auburn Boulevard;Não Informado;Não Informado;Não Informado;CA;95821
c155abe3c2c367f2a802d628e51b82f443961fc220ffab10cf915767e1099bdb;10020962;Mercer;US;7320 West Market Street;Não Informado;Não Informado;Não Informado;PA;16137
abcc438407006707caa42f507507d99484c1842767d589385aacd47f7139a7c9;10009606;Kilsyth;UK;PO Box 105;Não Informado;Não Informado;Não Informado;Não Informado;3136
3424e50db4fcb709e6e241e253a3f235c2472ce0e4d9705786b80a71b1a51cb4;10026606;Dearborn;US;Central Accounting Service;PO Box 6005;Não Informado;Não Informado;MI;48121
e03bee4937d898bddac56de2142a0afc277b2d5108b9870bc26862ffb263d1f2;10021139;Livonia;US;PO Box 3382;Attention  Accounts Payable;Não Informado;Não Informado;MI;48151
a11391910776a95d36e6e953cd0a261e26fa54c862fd9958786fc1c688b7c3be;10020266;"";"";"";"";"";"";"";""
e87dbb1c0b694af396d1b4ca1a2d0954a3d7b29c435fb5ea03fad6edeb998119;10025737;"";"";"";"";"";"";"";""
2d0a23fcf59c14199eb23a0d2f347f40f9c77c3b961f8e7c68a93d19fcaea45d;10025467;"";"";"";"";"";"";"";""
13e5d80ce3d8d6675bc989fedae59bb01d49ce90bc2a69fdb34a62ba8ca38db2;10025769;Redding;US;850 Commerce Street;Não Informado;Não Informado;Não Informado;CA;96002
fd9dbe377985ae3440f52c7d78e1cfa53c792334ea3321ea46919fdd75b40775;10010969;Elkhart;US;317 North Main Street;Não Informado;Não Informado;Não Informado;IN;46516
2813341d9116b8471ac31fa75415b3dc85cb21d1b186f879e07d3b1f51572eab;10024246;East Providence;US;580 Waterman Avenue;Não Informado;Não Informado;Não Informado;RI;2914
7adf9a1f1703eda061e739df000adc63e76b91cbc4a0b71fd771e7f242693037;10006919;"";"";"";"";"";"";"";""
95dc64a0a221f8bec32cdca1010e94ed5fa32a372bcc49289920e503bd86d6b3;10026009;Não Informado;AU;2 Calle 25-80 Zona - 15 Vista;Hermosa II Local 2;Não Informado;Não Informado;Não Informado;Não Informado
074f3004e209b4266af3d28c891f869a337fe1fceeef9a9b7c3a069715d51bac;10002154;"";"";"";"";"";"";"";""
d12fe8f1ea451248b9d6744cd07a11dd2b70727d2b68250132e90fbd31b86086;10013011;112 Reyjavik;AU;Vagnhofda 23;Não Informado;Não Informado;Não Informado;Não Informado;Não Informado
537d80af86a9d332cd9cb0f0e2782829be827872e3b911803c8f2bba7cdd25d1;10025296;Sun Prairie;US;666  South Thompson Road;Não Informado;Não Informado;Não Informado;WI;53590-2553
75bbcf8049fefa947be3bea62c8dd32faf389d24ddcf0c492985af96fea604e1;10018371;00-394 Warsaw;UK;Solec 44;Não Informado;Não Informado;Não Informado;Não Informado;Não Informado
51c5d7ef6c1c2709c76dd801683c3d3df957ded98d7739f1182a53cf6a721e7e;10024010;Mitchell;US;Attention:  Accounts Payable;300 East Norway Avenue;Não Informado;Não Informado;SD;57301-7064
e5a6d8f755ab9a3a8307e163c14e8f07d16fb50d57fb0b8ef0c114c39ac5e9d6;10021459;Olive Branch;US;Memphis PDC #19;Attention   Accounts Payable;PO Box 786;Não Informado;MS;38654-3703
f46287defee598d6119fba12389f2b2a77a87dce5b996e28a2701b779d2d4ebe;10020193;Não Informado;UK;Não Informado;Não Informado;Não Informado;Não Informado;Não Informado;Não Informado
63f4917c9f55a0f9f5df4e4ce9d2971d2b20f0d7359eeed0b56afa360c1ea5ba;10026532;Garner;US;500 Highway 18 West;Não Informado;Não Informado;Não Informado;IA;50438
0ca3718b443108059ed8627d20a0c6febabc955ae29da1ba35837f67ef504eda;10003749;"";"";"";"";"";"";"";""
2ed2ef779727027790a129637a427b3d8dbbdd640645b69ef02fd0d05c3513cb;10024915;"";"";"";"";"";"";"";""
ebe9987aa8c5df66e932cb458b191c033c6376e1534054463d19e28e71e4ec4a;10022978;Não Informado;UK;Não Informado;Não Informado;Não Informado;Não Informado;Não Informado;Não Informado
2a0029267e2e0e908dae8ecb8b0a5ec739406afc5b8d46a7f616ac9befce5033;10017307;Anjou;CA;10401 Boul Parkway;Não Informado;Não Informado;Não Informado;QU;H1V 1R4
3b394c7944e91a6f934a23c5036845cb158d5f69366829ff9112cfedfd5c8ae4;10007309;Não Informado;UK;Limited Reg Number 28388;40 Devil's Tower Road;PO Box 176;Não Informado;Não Informado;Não Informado
c0267e903875ae9c141755f77597c462e1ed120ff387b37d5089b40b5e243ca6;10025267;"";"";"";"";"";"";"";""
28dc11632651b6d5914189f356eaf1119332b74b86e9f40d0310d01c345e1106;10013765;St Louis;US;5821 Hampton Avenue;Não Informado;Não Informado;Não Informado;MO;63109
7e5631b40876f388a3f6d268ac230c7bcddf149231bb10992c306d75d4bde8b8;10025359;"";"";"";"";"";"";"";""
ead5536a6da65f7129a73f25b6910328b4e8a1dd3d9b0c147228ead84bc04bb0;10007564;Cleveland;US;1287 US Highway 59 North;Não Informado;Não Informado;Não Informado;TX;77327
07185d8b38af3370a07c1004f71739821a305a9ba574ab5fac67240c7df3132e;10023275;Portland;US;PO Box 30659;Não Informado;Não Informado;Não Informado;OR;97294
420769b6f3f64f04031409458f6179986cc012829550e03ba8ba35e98683a3f7;10001103;"";"";"";"";"";"";"";""
ff0efae4367bdcf1f758116183345a5eb8d1f0547dc7f509117121dcf917fff9;10024550;Appleton;US;PO Box 2017;Não Informado;Não Informado;Não Informado;WI;54913
63c58b651f30cd1947db7f91f21e4631d9c70f92853601c6f8b9b7c1f725413d;10024034;Edmonton;CA;16215 118th Avenue;Não Informado;Não Informado;Não Informado;AB;T5V 1C7
b2cf91c7cc9005a649a41fa2b4fc16d044299a031bd6dea68913ce59f81d8dc6;10006983;"";"";"";"";"";"";"";""
c469b6ae7337b081689abba50822d3972935e6949696ebf04430483cb00f939e;10014043;Guadalajara Jal Mexico;IR;Rinconada De La Floresta 1137;Rinconada Del Bosque CP;Não Informado;Não Informado;Não Informado;44530
a3b44708eb7778e164d16d2c0457931ce8e8470ff82dedabd87bf455ec1f7613;10005043;San Jose;UK;Paseo Colon Calles 34-36;Não Informado;Não Informado;Não Informado;Não Informado;Não Informado
cc5c748ff57dd3012af90e8637252b9861b6a556b0bbc9ae8734f114beb126b2;10022201;Carcas;UK;Av Blandin Chacao;Não Informado;Não Informado;Não Informado;Não Informado;Não Informado
f70e8c9944100f77b3a5ec3a8400535435f324d26bbd08cff050c2c4a21cdd8c;10015789;Jeddah;AU;PO Box 14311;Não Informado;Não Informado;Não Informado;Não Informado;21424
38a368db72132b8d8f3d3d53b91cb694bacc1808beee6d0e43471e3082ba7404;10020715;Linares (Jaen);UK;Avda 10 De Mayo S/N;Não Informado;Não Informado;Não Informado;Não Informado;23700
ba210164b6cfcedc04d0bd7af8d3b2170d6d7e3e72d5d35f8540eee68eec7710;10006917;"";"";"";"";"";"";"";""
72ed9fdc6a66c964a72133c0c9c6b875d73c635a49af9b353570bd9641864b16;10023780;Asuncion;UK;Av Eusebio Ayala 3321;Não Informado;Não Informado;Não Informado;Não Informado;33126-1214
f68d6a33f23f42a7f4884db39620ab7b843a83aeccd45113002d8179c6b8ab09;10025238;San Diego;US;4567 Federal Boulevard;Não Informado;Não Informado;Não Informado;CA;92102
08a8d0769c0b000bf647ce0c077c9c752e45a3c34de376fed77aa5c1d494f94a;10008593;Highland;US;PO Box 99;Não Informado;Não Informado;Não Informado;IL;62249
ee17d6bd1ede5de7e54701820516a5ffc1c9dbe2e5aff85002810b32afc0532b;10009657;Lewiston;US;12 Lexington Street;Não Informado;Não Informado;Não Informado;ME;4240
17b722f24047b750cbf2b0cc04a353096451da567cbed572c85eef39ee1db657;10026522;Fairmount;US;4353 W 1900 N-48;Não Informado;Não Informado;Não Informado;IN;46928
5fe7959e6f758d2a9ddd6fae5170127eda6f599603e3eda2027f1dcd85398f09;10017314;El Paso;US;8901 Montana Avenue;Não Informado;Não Informado;Não Informado;TX;79925
9a7eff8decde8a5b5af91650ddfdca7a83303de308c0da6ea66729c8d87710d1;10025249;Memphis;US;7221 Highway 64;Não Informado;Não Informado;Não Informado;TN;38133
457942166c519be8f97fbf27ade61a4cc47fb3bd4684abafb1e88ef0930fd650;10020445;Rapid City;US;PO Box 80;Não Informado;Não Informado;Não Informado;SD;57709
8f3bd72d91c3c9735c693df2c6976efddff33faee540b4e78f5f8f1d0a5b1b67;10027082;Edmonton;CA;9111 41 Avenue;Não Informado;Não Informado;Não Informado;AB;T6E 5V2
5b3b3ffe3bc2db75691c98e1c869f158d22a7bf7378b90df66a91cb2410e7e3a;10012927;"";"";"";"";"";"";"";""
c4177af55193cfab29b7211f21ef71a35584259eac9b678ef9e3de4e0d795d51;10027050;Milwaukie;US;3204 W Mill Road;Não Informado;Não Informado;Não Informado;WI;53209
b9cfcfdd2c673ded6ebda906eed21830f9af5e2285df802df837fb4c09fadc25;10021472;Surrey;CA;9475 192 Street;Não Informado;Não Informado;Não Informado;BC;V3T 4W2
36477fb2029c1946496193f2dfc1b8333bf88710d8f4bdb01aa2af05b85fc2a1;10021411;"";"";"";"";"";"";"";""
b209056b65d3972601c2d6a42914aefd3ee64cc1218dab98e0358b60a61b6a06;10009676;Kalamazoo;US;167 East Kalamazoo Avenue;Não Informado;Não Informado;Não Informado;MI;49007
0e2863d6b4b697854ae3e7b4c5c0507ef1aa91a751aa5a182c5ded80410e9a58;10008638;Milesburg;US;301 Iddings Street;PO Box 865;Não Informado;Não Informado;PA;16853
caafe87a73402eb084de5b859a2676c391d56493ad2853762b13424f1c8e77bb;10025158;"";"";"";"";"";"";"";""
9121c85db6edcda4c7ff34d17807ebe30b957fd39ce7abd838ed18953860285f;10016784;Pocahontas;US;PO Box 129;Não Informado;Não Informado;Não Informado;IA;50574
412cfd0997fd7992a05ec089c4523e661754994461e2f6dcbc349ef19e7f1173;10024255;Pontiac;US;Division Of Pontiac Michigan;17575 PP-CPDC;1251 Joslyn Road Dock 4;Não Informado;MI;48340-2956
021714392b7085fe6763dbea0f73e173de829b05dc6cc4148f71deb2cc458126;10013252;Irving;US;Dallas PDC #15;Attention  Accounts Payable;PO Box 167728;Não Informado;TX;75016-7728
56c7da4fcc764dcd1c4ac2eb35d9a3ca229d0007c7fc48c00d8b04c4e247e21f;10020684;Montgomery;US;5415 Lamco Drive;Não Informado;Não Informado;Não Informado;AL;36117
ab159ccf6bd3e05408be894125dc4f7ccbc3a66259de539ffc8c18a56f725ce5;10025508;Moncton;CA;1809 Main Street;Não Informado;Não Informado;Não Informado;NB;E1E 1H5
fc31cabfece4948a4e37a73cefe75b14a83b48fab3c876cb839409484f60e379;10009669;Não Informado;UK;Não Informado;Não Informado;Não Informado;Não Informado;Não Informado;Não Informado
86fcd45fdabb29ef9b806f5cc74aee2dc5dc3fc95f2321ab63afbc1c5db3cf37;10020080;"";"";"";"";"";"";"";""
9b67de2a7da704b7c1d6264c0eb1eb987ac18364ad922fa1c34167f2ea9953e5;10016113;"";"";"";"";"";"";"";""
4941c35b1c12f810bb7ceac74dde50d518f45227b83b22bbd69ac5ea4fa47b8c;10011089;"";"";"";"";"";"";"";""
07d73d76965bacadb49c8bbf0f20641deee684fdb4a00c6634af1db9dc0a0644;10012328;"";"";"";"";"";"";"";""
302d04edb539a331621eba7082e76dd07fcb1663d947b59acb09b2b973c3d504;10010717;Waterville;US;208 W Main;Não Informado;Não Informado;Não Informado;KS;66548
bbcc93f2e9bb42a4611daa3ee1744b63c2b172a94d21c95c7dffa8ea6191aaf4;10018146;Fort Macleod;CA;Box 1178;Não Informado;Não Informado;Não Informado;AB;T0L 0Z0
0893c73adb26d6650c0171a08ddf30105e2ef33fc4ca4b3417d5c440a96c01f0;10012235;Winnipeg;CA;PO Box 1005;Não Informado;Não Informado;Não Informado;MB;R3C 2W7
60457822d97b676a66173ef4653a8407ed3f7b35cec2200240f70608639fb9e6;10021270;"";"";"";"";"";"";"";""
7ae8fd1c37b00a02cbe176670b854dd5340cca512614d2aa33a9591fad74cff2;10002139;"";"";"";"";"";"";"";""
2ecff0457d55c5a47f2f0a51e032039eeb6003223ac5405dd81b6668017ac972;10005236;"";"";"";"";"";"";"";""
94c9c84de6aaf379e8234523aa59adfc9eb6b8c74b9401cd96146a349023b06c;10020227;"";"";"";"";"";"";"";""
05fd7ee557f18064abe01bf1c145c1d2bedffd1dde2b99d23dce3b445d919a81;10021223;Wayne;US;Michigan Truck Plant;38303 Michigan Avenue;Não Informado;Não Informado;MI;48184
44b970f987316e15b6a817647fa206b7322dcd459741b970f51fdd65a102395d;10003720;Hermitage;US;2755 Kirila Boulevard;Não Informado;Não Informado;Não Informado;PA;16148
41d800d70b4a76afb6a9494f81e89d18f480b1b3e5c8256241404711d9b0da4a;10014471;Calgary;CA;2916-21st Street Northeast;Não Informado;Não Informado;Não Informado;AB;T2E 6Z2
1530a873c1717d77ef7ab91ca9ea395bda070ab7a342d98e6abe51598fd39e59;10023495;"";"";"";"";"";"";"";""
b76edf1a0c3439adf447c1550bac1d87ad0342e230fa3b0bbe2bdb87a7896ee6;10025038;Mechanicsburg;US;PO Box 568;Não Informado;Não Informado;Não Informado;PA;17055
fe1df2b73bce829dc76ffd7d22b2327b3daad0891e6e5ea143bed144ff2ba0cc;10023511;Schiphol-Rijk;IR;Bellsingel 2 1119NV;Não Informado;Não Informado;Não Informado;Não Informado;Não Informado
941f4873f2d26ae9a8f73160b4e49fabd99ddc2ac9b545cfff7abdf0373d4fb9;10015956;"";"";"";"";"";"";"";""
83a47a438a017abd6b8551157fe537bf25df9dd8b78b913ed2e5e2f6c82369b8;10002161;"";"";"";"";"";"";"";""
e5a4d60990e587dba7f63cb3faee2d55a8232eaee583ab88d00db375abb8ce7b;10012226;Troy;US;Worldwide Purchasing;1996 Technology Drive;Mail Code 483-619-114;Não Informado;MI;48083
524eb52d3a1a895d89c0341b0ae4332a3579a6e0aeb6c344a0a335822b9db627;10027053;Raleigh;US;PO Box 68;Não Informado;Não Informado;Não Informado;IL;62977-0068
00ded45b289880a8158d3a5953a9481eef5f34ea6b96fef513aec44a996461d0;10008602;Wells;US;209 Sanford Road (Route 109);Não Informado;Não Informado;Não Informado;ME;4090
631204db3702967ab44602f7c33f7c9a390a7ed57608f0e5a0fd056b14413f25;10025033;Billings;US;226 North 13th;Não Informado;Não Informado;Não Informado;MT;59101
131a06e145919d4df287e3a8b0a91740aeca25c7f265c528e2f0308f462b2aab;10015824;South Bend;US;PO Box 7005;Não Informado;Não Informado;Não Informado;IN;46634-7005
990ca359bfc11ae769a0f958f47f2f4aedb29357c2d19548631ddfd9755ad968;10027575;Dallas;US;10400 Plano Road;Não Informado;Não Informado;Não Informado;TX;75238
af6afb802b02b1e08501f72c7f25b59f9a24c4bbe0a5ad77310931e82eeacabd;10016609;Winnepeg;CA;Unicity Distribution Systems;1445 Church Avenue;Não Informado;Não Informado;MB;R2X 2X9
e0e9c4ad4cc67579607f737a2cbecdf29b97dc9c44bcfdaedaf55a885c94e1cc;10013574;"";"";"";"";"";"";"";""
b479a7a56ed629bcc1b7880dfe9e1dfa828fd1e7242c6a1971c83254709aa38f;10024262;Oakland;US;124 Hegenberger Loop;Não Informado;Não Informado;Não Informado;CA;94621
b5d5f2f23e676fb43abb489764e48cb329f81ae346016861a789524e0103a7bf;10019400;Valparaiso;US;861 West US Highway 30;Não Informado;Não Informado;Não Informado;IN;46385
9c7f591ee697685aa5917490e78fd858854d10ebd38579fdd8ae3576bcd90ea3;10010970;Irving;US;1477 E Highway 356;Não Informado;Não Informado;Não Informado;TX;75060
3c20add6e0eff9fe3d91e2a6329a518f1a56b826c1838db2acc333a45449a2d0;10008596;Springhill;US;PO Box 578;Não Informado;Não Informado;Não Informado;LA;71075
a14138b73d6c8c326d11432b3b68a462f8b21eb85405fa0425d2424cda03cedf;10023513;Stockton;US;640 N Eldorado Street;Não Informado;Não Informado;Não Informado;CA;95205
de9a883d9786fcbce9bf37ab6f5fb08aa1c291a6ddd90340e61c2021e2235a39;10019682;Lennox;US;PO Box 409;Não Informado;Não Informado;Não Informado;SD;57039
9e8653c7cff47e09b9a6f6efcc17c85d5ff5f595d212252c369f3b51b08c37f9;10016549;Jacksonville;US;PO Box 6307;Não Informado;Não Informado;Não Informado;FL;32236
235cb50e19617c237e048aef1ba34b4eb7bb4e4497eb2f704728d07ccd8a3bb4;10020332;"";"";"";"";"";"";"";""
78cedaf79b412a69ce65425e67b597ad0c6f79bd27ac6b873dd88f71925fa661;10012128;"";"";"";"";"";"";"";""
7dd87664f3ac5b78f747245af329bb835146cf1cc79c69ecbe9ec5965e4cc82b;10004255;Seoul;AU;3F Shinwoo Building;195-12 Poi-Dong Kangnam-KU;Não Informado;Não Informado;Não Informado;135-260
36ae5944533d59e8c416b536dcaa132fd5adb37b045d303bc977f346f7e5df15;10019194;"";"";"";"";"";"";"";""
0f53d36f83e87b959bf010217bb4fc772327ab5c928281a620d79c28a60cb439;10024260;Spokane;US;PO Box 13056;Não Informado;Não Informado;Não Informado;WA;99213-3056
4263c9fc4c4b036e537d4866e2417283063dad765678cb17aed564f5aee8a062;10016807;Overland Park;US;Attention  Accounts Payable Department;PO Box 12990;Não Informado;Não Informado;KS;66282-2990
ff92275c5229525ac56a9d7d8085279bdf3e4c09016267782153fc92267dbf25;10006093;Evansville;US;PO Box 5364;Não Informado;Não Informado;Não Informado;IN;47716-5364
6221aace3579e73f0e5ca9f0ca971e4cc85211d8195c9e734ea45755735e5069;10025758;Oklahoma City;US;4532 Enterprise Drive;Não Informado;Não Informado;Não Informado;OK;73128
cf08c4f1af08af91e0a4711cc3921a859a00913707d376f36558a6db03a51fd8;10025062;Bedford Hills;US;731 North Beford Road;Não Informado;Não Informado;Não Informado;NY;10507
9917afb1be42ed984ce07cb8c840dbea74bdd262cbd37c79d6e0172ab211c547;10024743;Enumclaw;US;907 Cole Street;Não Informado;Não Informado;Não Informado;WA;98022
1762005209a48dc07e9bdf8e779574b8bc22c8a8ebb3ffc7683703c0d0e6ca96;10023003;Coldwater;US;400 Jay Street;Não Informado;Não Informado;Não Informado;MI;49036
e59e18b7539c9e29fa33791e7a7dca944f158c2ac9c705e341e6753895975fb7;10025302;Tulsa;US;4345 South West Boulevard;Não Informado;Não Informado;Não Informado;OK;74107
0f89ada0a7ab596cfe1269409288f6a3b8048d615b948569d5a85c719588d0ba;10021331;"";"";"";"";"";"";"";""
4580f8d4981a205a62fbedc43a31b1f700203131afa9b7f3739bf7fb348837f2;10015325;"";"";"";"";"";"";"";""
d70f46e687a9e0e914ee66ed98d0460a60340fdfbf196973433553367af228ea;10022183;Breckenridge;US;1760 C Airport Road;Não Informado;Não Informado;Não Informado;CO;80424
dc9423c4dc8624d61daa115988ff9471c408696b1428157bf15e04504d8db55a;10025243;Longview;US;PO Box 5308;Não Informado;Não Informado;Não Informado;TX;75608
305697440f0e0387ac26323fbb9d7bd3c5b7c29cb6c0f3506c5dcd1b0a69b720;10020982;"";"";"";"";"";"";"";""
ba67e72b86e8ce220a089138f08aa275665c2ff78694aa5e6331cb4ed100c3ae;10006836;Quito;UK;AV 6 DE DICIEMBRE;N47225 Y Samuel Fritz;Não Informado;Não Informado;Não Informado;Não Informado
971b19acf6dcc05ba96ff81126d378df4180466d7d54e0b5cae5d79caccf7a34;10025919;Compton;US;801 West Artesia Boulevard;Não Informado;Não Informado;Não Informado;CA;90220
6f054c4d5d35f8ad2e6da2cda4b815250505717113445861de60427ae2942d3e;10025571;Des Moines;US;PO Box 3283;Não Informado;Não Informado;Não Informado;IA;50316-0283
eaa8dc5b2a3ebb19fca70114310b7c48cc74f7adace7bb01c7901ebe37bc7f45;10025771;Waldorf;US;Southern Maryland 4 X 4 Inc;2588 Old Washington Road;Não Informado;Não Informado;MD;20601
2e4ce30fff0b2df830131ea5aa4a56440f7b6acd8babd4c656c6b803592100f1;10022431;Vinton;US;845 Third Street;Não Informado;Não Informado;Não Informado;VA;24179
4dbf4babaa527239a2bf8e71e79e98f2ca7910c05d9f7eb2e661025d20d8e6b1;10011355;"";"";"";"";"";"";"";""
94c955a41f2c5c16a6d8311d7d82ff449d3421cab99eb99b6aae2d14a403e99a;10008893;Yakama;US;508 South First Street;Não Informado;Não Informado;Não Informado;WA;98901
02737fc84c34ac9f27654a7f5545e82a2f3456493c20522f5694e3389b44ed9b;10022725;Norcross;US;1723 Webb Drive;Não Informado;Não Informado;Não Informado;GA;30093
dbb6ae1f50501a250e8fad3819d1060fe5f2edb839c906f54e7fa3bda47d8084;10018885;Pocatello;US;128 So. 2nd Avenue;Não Informado;Não Informado;Não Informado;ID;83201
9fcd14d93be76032a3abb97ab7ab0bd62235066b33132b0674af81dddab86dcf;10002155;"";"";"";"";"";"";"";""
1fb2f3559adfe801c136298727bc9855cacc7068c9d306ef89afc53036775479;10015267;Sollinge Molle;UK;5750 Ringe;Não Informado;Não Informado;Não Informado;Não Informado;Não Informado
efc8c1ff2d3667fc6fbf100b39c5e44ea3f0b0352b55746c96c3589c25c108ad;10002526;EE 0026 Tallinn;UK;Kadaka Road 72 a;Não Informado;Não Informado;Não Informado;Não Informado;Não Informado
97a089c13f7ba0a2da4b5d677cc3fc58427dc5e356a0d5208f40011c3227e76d;10019900;Sacramento;US;3248 Auburn Boulevard;Não Informado;Não Informado;Não Informado;CA;95821
fca49d44e8d71c69e0e8493eaa9670ea724ccbaf49cfb703c52c1727c66281c9;10001786;"";"";"";"";"";"";"";""
4e821d7a9dec0eddb96532e17db9f9e63dcf348436cb150c858b8708e03784a6;10010914;Overland Park;US;Attention  Accounts Payable Department;PO Box 12990;Não Informado;Não Informado;KS;66282-2990
2603e81005d5acdc6d01c165f846485f222a3b3ae2cb8b700cf6115455474499;10020364;"";"";"";"";"";"";"";""
696519b8273b1d4e54887a4d90f28c4fdcd20282be67f462826e8f6fa4e476d6;10018877;Beirut;AU;Dagher Plast Building 17;Baizoob Area;Não Informado;Não Informado;Não Informado;Não Informado
a9ac979eafc9a7743509dcf0b381c1132af8aee7c3662d0fa2c60cd748c9b1dd;10000473;Rancho Cordova;US;3290 Monier Circle #100;Não Informado;Não Informado;Não Informado;CA;95742
c61d6b28a0cbc84e26c0543260c66a13eba6daaf8088dd8a7af94e8ea98cfe5d;10013232;Milwaukie;US;PO Box 250825;Não Informado;Não Informado;Não Informado;WI;53225
5f8b5fd3e755a823f2725c42f78241c46d7f5cfdb4b202f51cdc5ae2443ac7e5;10021750;"";"";"";"";"";"";"";""
17fc06435ea443d88f3d3f48c0b6c73726d25488c8a1e77668e88b3f5bca5813;10002520;"";"";"";"";"";"";"";""
ee70a45f3bb1a062d72697d978fe26a1e26f5db2368e7d22bab2a165a29f7bcd;10009647;Sacramento;US;3248 Auburn Boulevard;Não Informado;Não Informado;Não Informado;CA;95821
2d14065ee4fd0e62364324d3ce6f34b1091a38cb8f6b86c83acf4c0e236b314e;10021911;Tupelo;US;PO Box 2187;Não Informado;Não Informado;Não Informado;MS;38803-2187
ca99ca6ea8e0875f052b57ff58bca95507807417258f3edc7b30b8c956c6d0de;10015886;"";"";"";"";"";"";"";""
120b4f5779704313341af428c721b357f5d09ba81fe9a9a87c9bf146d19f7fbd;10020181;D 95326 Kulmbach;UK;Am Schwimmbad 8;Postfach 2008;Não Informado;Não Informado;Não Informado;Não Informado
b17a49bce35597a02383b77f899d6bbfe8f1df3f3a98c225af2b0b068f35b3c8;10011732;Não Informado;UK;Não Informado;Não Informado;Não Informado;Não Informado;Não Informado;Não Informado
634ee6e6d7dfdf783fc9163cf4fb97516800fdd9858ea819fb9d40e97e1ef96c;10022755;Johannesburg;AU;PO Box 86222;City Deep 2049;Não Informado;Não Informado;Não Informado;Não Informado
167de51dc1bdb9150ece70d4885c06ce16699d3ddeecd55da3a843da19ffbf20;10025025;Auburn;US;2402 West Valley Highway North;Não Informado;Não Informado;Não Informado;WA;98001
19ba83322b8466ef481d891f3a32a74f9a7dc672fd1d43c59049019c74e7fcd3;10018518;"";"";"";"";"";"";"";""
c2fcf94764341142deedeee95bd64a4df608e851f2298012b22cbbec7feeeea6;10025036;Kansas City;US;1920 East Front Street;Não Informado;Não Informado;Não Informado;MO;64139-1538
2a526da4be9941308137055721989e8f4c0fb8b4057865b6c8879895c9195a21;10025549;Shady Grove;US;PO Box 21;Não Informado;Não Informado;Não Informado;PA;17256-0021
b19f716a1bacecced208534e68f14a14d4ccd30f38385ed8847e8e28e3f6f20f;10025298;Toronto;CA;1111 Finch Avenue West;Unit #22;Não Informado;Não Informado;ON;M3J 2E5
d43a5cd9722059849f6ef156eddd8a2e7f20ad1078270de48d6f1533d5399982;10009643;Flint;US;4103 Holiday Drive;Não Informado;Não Informado;Não Informado;MI;48507
19101714f9d23f11c7ee42f3319c0e91ee300d5358d86a88864d3905a579d679;10026581;Savannah;US;PO Box 22249;Não Informado;Não Informado;Não Informado;GA;31403
16da35c2b5c19a76a460680a2df7854506c8d8fffeb0fb4cf575e9f229743cdb;10022687;Burnaby;CA;5325 Still Creek Road;Não Informado;Não Informado;Não Informado;BC;V2X 3K6
8bfe7da71d02932c15a403fba5dc74dc175596f25929d8dc1537fa03084c8774;10025264;Tuscon;US;3545 South Richey Boulevard;Não Informado;Não Informado;Não Informado;AZ;85713
7d88ba1d1a08e41ecc4ce99343f5ff2b82d989f66653c0af169a341ab06b6d7b;10012422;Saginaw;US;PO Box 510;Não Informado;Não Informado;Não Informado;AL;35137
fe9f14c47997beae3c80bc94c1f4d80fb7de2180282fe3c8cfd2be7c6e79d8bd;10002506;Salt Lake City;US;Attention: Doris Nielson;PO Box 26005;Não Informado;Não Informado;UT;84126
75901c4fd6e9a5aefefd0fc90a19e19c675f8f5c81c0c20c316bf02bc2bc2d8a;10002746;Bensonville;US;1200 North Ellis Street;Não Informado;Não Informado;Não Informado;IL;60106-1119
78af4f6b474a896caef3deb5ff440db3807ad65dbb1463f8ae6a648fa71eda0a;10014533;Aurora;US;Chicago PDC #22;Attention  Accounts Payable;PO Box 2060;Não Informado;IL;60507-2060
113596d87f4f239aa4abe8adfe730297efc676a9c6367a0bc33f4ebfc3c59923;10020390;Lansing;US;16241 South Us 27;Não Informado;Não Informado;Não Informado;MI;48906
d500f751c9828e414ad373ced1b9fc2ec1ac19448adea9ca3e06cb9f90965a99;10010935;Sioux Center;US;877 1st Avenue NW;Não Informado;Não Informado;Não Informado;IA;51250
a864504fd628afde76b1856a7c0ce3473eb4aa05e1442d036d28a04e84e5a852;10000496;"";"";"";"";"";"";"";""
a234e737c1c1aaf4983714ebb5f55c39a83f8a1343667ede4503c46d6ee7a8dd;10000458;Saginaw;US;PO Box 840;Não Informado;Não Informado;Não Informado;MI;48606
949427d10a6729add4d47fadb2ec45d5b2740a4f2b88bfeececd03c333f004d1;10014540;1980 Santiago;UK;Avda Bdo O'Higgins;Não Informado;Não Informado;Não Informado;Não Informado;Não Informado
476a005037d7e4197c3bbe3b7c51141c2f17d2d09c6dd16efa5888847668c4c9;10011093;"";"";"";"";"";"";"";""
6eab2ff9208e30b7f522b4127b44165133fbaefc2c72f4c55c71913b77081cd6;10023778;Hillsboro;US;PO Box 70;Não Informado;Não Informado;Não Informado;OR;97123
b42cca1b517715a052991f870b4953b52fbf1b01036e4bc155836d4dc606e072;10007448;"";"";"";"";"";"";"";""
1a164383efe2343a07292ccb39ceb0adc0dfa6da80200041a47b46e178b1c61f;10013870;"";"";"";"";"";"";"";""
1958dd10f66065dd7f717cd96e1dc80479591c5274b9e70a407bcdd3fddbb735;10021804;"";"";"";"";"";"";"";""
ef5c2d4b73d443024b06d9ed2a64d02dfc4c918902002f3b3386f9bda67299b0;10026334;"";"";"";"";"";"";"";""
bae1448c2761a1ec729782fb80fcdd14b2c5760507bd3b0f89f16deffb587797;10018867;Flint;US;2400 R E O Drive;Não Informado;Não Informado;Não Informado;MI;48507
9daa625598c8c07d2f0c19057552b8f2ef98ee5a74a631b0e6a011f7c3afb2e0;10022450;Overland Park;US;Attention  Accounts Payable Department;PO Box 12990;Não Informado;Não Informado;KS;66282-2990
e6972dda4cde40525790fe66b54289633934a78655f4c3a5e6c79cb894b08eb2;10013670;"";"";"";"";"";"";"";""
cf048c519ace22ceea7bc48fc2a792702a36a989ac4df295459ceb599713c666;10020931;Bozeman;US;PO Box 549;Não Informado;Não Informado;Não Informado;MT;59715
f5dd2656655c3e534cbb35a5e4289b27d1d204e0dc0e7cfb5b2822e2b89b506e;10005861;"";"";"";"";"";"";"";""
f16ab41aabfd3c1b0dee66b092924a393f5cbf1c49c6876e5872145f38869c41;10022750;Watervliet;US;8300 Lane Drive;Não Informado;Não Informado;Não Informado;MI;49098
f68305e7896eb52d45af38560741c9c0b2093bd12944ea920102c99293d2852d;10023471;Odessa;US;915 West 42nd;Não Informado;Não Informado;Não Informado;TX;79764
dac8258a4ee14dd78a936767e8d75455693940e938d5dd2b9031a3240f0471bf;10022746;A 5102 Anthering;UK;Landstrasse 18;Não Informado;Não Informado;Não Informado;Não Informado;Não Informado
06324ba117b88fec2ef4a47f2a2ff1d370c898035c389f51f1acb336ac58dde5;10010855;"";"";"";"";"";"";"";""
b6ba89c4915e2ccfbedfcac7e6112ca607c88dd3a4310de8d6835d71093e3934;10020915;McHenry;US;2600 West Route 120;Não Informado;Não Informado;Não Informado;IL;60050
1f11458af9815ee4d9f1cfd9993165cc24899920f9067c9ac22de5a7f10246b6;10018623;Laurel;US;17 Perry Road;Não Informado;Não Informado;Não Informado;MS;39440
2c1b42e18528799918df7b4147d1aa47506fb98e07e1ee16a3182d17d5e355d7;10023022;Surrey;CA;18412 96 Avenue;Não Informado;Não Informado;Não Informado;BC;V4N 3P8
89ff574b105e1ca9afba8933abefb5f3b41c5c01197d961bfdb5e6cc751d88b1;10023964;"";"";"";"";"";"";"";""
3e5c703492a78281ac869306d9043d73668c2ffc5673eb4597caca7a967ee87e;10017553;Ottawa;US;PO Box 660;Não Informado;Não Informado;Não Informado;KS;66067-3805
14f9ec4fb9e81b05785e2ccebdd3603ecfd74c7f297cb42a7881f33f7d458126;10021240;"";"";"";"";"";"";"";""
7ec6fe6c3dd94c8edab5aae0a704ecfe43ec26e0b5ed471ff72494f678f8831c;10016045;Monroe;US;1051 West 7th Street;Building # 2;Não Informado;Não Informado;WI;53566
cd40dffce7310bf31aba294692fab22ef9d189cc1335aff998cbf7d1779ace43;10011521;Okolona;US;32722 Highway 45;Não Informado;Não Informado;Não Informado;MS;38860
3cf81c76f490e82f9b9bebc84c324a88413501a464162e2979c7d8ef734b171e;10006805;Miami;US;1801 NW 82nd Ave;Não Informado;Não Informado;Não Informado;FL;33126
bd6ef71e9ce555ea8a71f78267e7428a0bc1fec221b58bcfc5b932e73887537c;10025300;West Sayville;US;Attention: Paul Grady;105 Montauk Highway;Não Informado;Não Informado;NY;11796
72ca89e6b81f1342ade8ce373b706af66fc9b1cb67ac8334182077f7a8d387b9;10009639;Industriestrasse 17;UK;Industriestrasse 17;8910 Affoltern AA;Não Informado;Não Informado;Não Informado;Não Informado
b74ab50253498d465e6525a8bba0ddb59987d5afe4a825ef951c715e24f0d5ce;10008381;Puyallup;US;10023 128th St. E #7;Não Informado;Não Informado;Não Informado;WA;98373
55d8bbb37b07d5c2a580341d5e33e172f31633c3b2006d17bb7b0a5c7dd42ea3;10022764;Ocala;US;2610 NW 10th Street;Não Informado;Não Informado;Não Informado;FL;34475
03d2cfbbc7358b979f74f60e9ff127cf84a2357e5c7af7d2b55c64647310e33a;10021158;Surrey;CA;#9 - 19257 Enterprise Way;Não Informado;Não Informado;Não Informado;BC;V35-6J8
9aa43a4bd9955945b9c4d9d114db166162ff46c8b943b0e3e6ce165c17976608;10011623;"";"";"";"";"";"";"";""
69e2d695a70f5fa849565faa465afc8eef952c7e5d61f4952520e00a5c87792d;10002412;"";"";"";"";"";"";"";""
54e6a1e91444e06fadb164074370875c1bb94aec217e8805af4a9154345430a3;10005922;"";"";"";"";"";"";"";""
83dd18856c0f2f8cbef7136759a6a05e96e7551c0c8bd734a79ff43831c986eb;10020907;Não Informado;UK;Não Informado;Não Informado;Não Informado;Não Informado;Não Informado;Não Informado
3ef3590d96da100974785da1fb97b72a7ea8998008ab2c5e315e999bb47c1791;10026843;Tulare;US;100 East Inyo;Não Informado;Não Informado;Não Informado;CA;93274
1b85c5db563940fa8079159b12cf4a43dcc01c0b5c652c7fa76f7d7d0d04d5ad;10023715;Plainfield;US;Central Division;PO BOX 600;Não Informado;Não Informado;IN;46168-0600
8b72e8355a7660ab7c933193e19baef44d540e4db911d9ab4d829fd57aeeed43;10017072;Chicago;US;4200 S Morgan Street;Não Informado;Não Informado;Não Informado;IL;60609
f51fb01238449444ad78b47fac848f79dc6381c53579943b0b81308d578ccde7;10000456;Edmonton;CA;8151 Wagner Road;Não Informado;Não Informado;Não Informado;AB;T6E 4N6
932ea451e46bd5c347d1b6ceb2b27acefa8b9d2ade806529d42f82e7df157787;10021736;"";"";"";"";"";"";"";""
38a2100f15b97ed5a359b2a6945aef35d98fb8dd09f6ea581fa4fb112aae9d85;10006977;"";"";"";"";"";"";"";""
91ad8231289d7b8727ae8e75b7b6be1b21b30e8474048c42d463101d7d3d21fb;10009633;Não Informado;UK;Não Informado;Não Informado;Não Informado;Não Informado;Não Informado;Não Informado
c27118e9cb78455bde9740574e1592ae40acc52d802bcf783405a4787e749b39;10000466;North Highlands;US;3213 Orange Grove Avenue;Não Informado;Não Informado;Não Informado;CA;95660
152629080ddcb224dfa065a2abdac6edc73b9749dd2f1be205c263c35391a4bd;10003795;Baton Rouge;US;PO Box 2484;Não Informado;Não Informado;Não Informado;LA;70815
53f931b8ee96b72fac8d1d662d53c404e94a602924b7d2fe5a098d863d5ade46;10021936;Louisville;US;7779 Dixie Highway;Não Informado;Não Informado;Não Informado;KY;40258
9b70846f439117496afce1a909de26c83ba1a17144b5d3845402aeabbff1e2aa;10021107;"";"";"";"";"";"";"";""
7fca2de672c8025a820ec5b341d70f152d298f39a1951c010652a121ab032705;10025814;Houston;US;5300 Glenmont Drive;Não Informado;Não Informado;Não Informado;TX;77081
26446baae91399a891702143ad2a65a8450aafd13cf355c2642dc8937a385905;10025285;Chattanooga;US;2401 East 31st Street;PO Box 72638;Não Informado;Não Informado;TN;37407
cc8f43d545d591019c63b767ace5d85fade32191d53f4c60fe6eacc882c7185c;10007577;Stewartsville;US;2621 State Route 57;Não Informado;Não Informado;Não Informado;NJ;8886
5aff5f7cdff58331ebac2b32c20cc35cfe5ac802b288294d8a3837034a776b75;10024270;Maxwell;US;PO Box 1010;Não Informado;Não Informado;Não Informado;CA;95955
9060b8da23bd245d88f8abaa50f2d19f67e254b32cf59d09b3e60c3abc995113;10020849;"";"";"";"";"";"";"";""
2d246218377fed621b563b7f064d84609cc9d860498ba66956069c84a87bf359;10024003;Benicia;US;Attention:  Accounts Payable;5500 East Second Street 2nd Floor;Não Informado;Não Informado;CA;94510-1020
68d7aeab84c26da593bd7707aa3d4711e105a7c5b7e993b3be1dee0632f64dbb;10025250;Ooltewah;US;8503 Hilltop Drive;Não Informado;Não Informado;Não Informado;TN;37363
e5df409aaed2d61d5be6d0070d4202f9a7fa406e91e28de261e31fe36e6fdc2d;10024009;Tulsa;US;PO Box 582510;Não Informado;Não Informado;Não Informado;OK;74158-2510
6c777ad27d420d453e933db0f1e3c151d019137f1fef0f849de95c34667f4703;10009650;La Paz;UK;Plaza Venezuela 1413-1425;Não Informado;Não Informado;Não Informado;Não Informado;Não Informado
e9096d700d6b51f2897081cd43a22fed8724c908bfb8127e036383348543b0f6;10005688;"";"";"";"";"";"";"";""
0ddf69410563866bc7b9f25b9effe64f4b22016d65749c7a085fa306e7045c68;10007253;"";"";"";"";"";"";"";""
7c4d7dac783c977f48f2114ad734d73bf957fd2d9f2b2b7dfe91d8d5d3bb11d9;10023509;Tampa;US;513 West Waters Avenue;Não Informado;Não Informado;Não Informado;FL;33604
43c2811aefc44982d08f46c591318137a6c0aa2c22c0cfb2b48b062c0b4b18e8;10011997;Roanoke;US;2177 Dale Avenue SE;Não Informado;Não Informado;Não Informado;VA;24013
fbee71cb678fc70249ff2c3c9dddd74370834a6f52920fad994feb157c6e22b3;10010887;Edmonton;CA;9605 56th Avenue;Não Informado;Não Informado;Não Informado;AB;T6E 0B2
6923f31156b76866da4131f4b0dfc66aba9aba30eb8eb5dce0c0ce807da4562d;10010884;Boucherville;CA;170 Industrial Boulevard;Não Informado;Não Informado;Não Informado;QU;J4B 2X3
381cdecd34e3ec9de122c6b0c93e8cd53bb3ecfac91ce38f50e985f47f33340c;10020192;Sacramento;US;3248 Auburn Boulevard;Não Informado;Não Informado;Não Informado;CA;95821
81d9c0e52d43160f818d874e3f7d66f6de31fc5c210f83070ab8b718de181b0a;10015275;Marshfield;US;1601 East 29th Street;Não Informado;Não Informado;Não Informado;WI;54449
7ee525462373afb3ac2a6dd50421b538fbd61c87d7d44748427ca4519316d504;10018129;ZI 1 Ducos;IR;Rue Champion;Não Informado;Não Informado;Não Informado;Não Informado;Não Informado
cf90b040d61a0d7606cfd759f0519f5969ed618db8269ef1f9bd109a11bab2d1;10019678;Sacramento;US;3248 Auburn Boulevard;Não Informado;Não Informado;Não Informado;CA;95821
2cee29bf309742e330ce7e87834012b7629c2e77e469423ae581010deda1083d;10000469;Montreal;CA;Attention:  Accounts Payable;7025 Ontario Street East;Não Informado;Não Informado;QU;H1N 2B3
998b7ddb00f7285d474267efb4dab0b572b2b3d3695776fac2f2b1da37bc98b5;10002149;"";"";"";"";"";"";"";""
541d0df69785caeb4b0e73539cd140539d730148b8c9bbbc264f6da07adc1e40;10000497;"";"";"";"";"";"";"";""
ea2509b335857fdaa6b1e46573920050817f915dd7d7579b9ce21f7387e77c4a;10010906;Frederick;US;5702 Industry Lane Unit B1 & 2;Não Informado;Não Informado;Não Informado;MD;21704
5c79ecb4db821da36cfe6a870a45adc3623015ca56f0d54793dd44c7a503ceb4;10018352;"";"";"";"";"";"";"";""
deda572c31a8641db0d9ee725908e75cbe4849a714aa2879571ec5f7a61d0437;10003554;"";"";"";"";"";"";"";""
8a19e565d9fbdac1e885e12c33732593738e278c4c7b4378be8c346b2f04d461;10024942;"";"";"";"";"";"";"";""
bef27479423f85338f97d6c2f5fe35fdbb7482520b1f3409444ac6485912f057;10025063;Não Informado;UK;Private Mail Bag 53;St Peters NSW 2044;Não Informado;Não Informado;Não Informado;Não Informado
dd7621ce3096df2754913ae06763d5c4b9666a35ca6f8e80c8b43867446546ea;10021494;"";"";"";"";"";"";"";""
44405097dfef8bbe9fd6bd9332fef6497fa4a290a97a39d2bad86e8d0d9723ce;10017828;Cypress;US;PO Box 762;Não Informado;Não Informado;Não Informado;CA;90630
d609a90f28d290c19dd9ccabbac5c2c95f39285a30dc69e9f2b146eab967dc2b;10015495;Kansas City;US;Attention:  Accounts Payable;686 South Adams;Não Informado;Não Informado;KS;66105
19e252b3b6db105e2ec54101d1204f6f39e05c79e3263f73e38643c8f14dee4a;10007121;St Louis Park;US;5711 West 36th Street;Não Informado;Não Informado;Não Informado;MN;55416
9e991c9e5dcfcf6797a80d10d6aba678045b280391e4a95178e3078f7c0d9461;10020639;Tulsa;US;PO Box 3445;Não Informado;Não Informado;Não Informado;OK;74101-3445
433de7bd5344a0065fb08bf8e2d79bf8bb6b67a8c9a48cafd1789373c20fe4da;10026299;Dallas;US;334 North Hall Street;Não Informado;Não Informado;Não Informado;TX;75226
6922f14106f074825b8d9b05ae7ff6068c23c9f42da80d10e8dcf4d9c4704bbd;10011052;"";"";"";"";"";"";"";""
7b27fb8cbc7b15cb099e2e4b608d33c2a4492036e1a0f1442fdb21762d4f31fc;10026291;Poplar Bluff;US;1880 N Westwood;Não Informado;Não Informado;Não Informado;MO;63901
cd415b2a0d0ea12ebbda710731a9708b6cd8634684d186d8d4d36b7c1a81387d;10009697;Orlando;US;4455 Dardanelle Drive;Não Informado;Não Informado;Não Informado;FL;32808
5e119118c7ed235e554b8bc1eca6ee5aa262d55252bf7da129a90da55e62e0cf;10009631;Corona;US;1477 Davril Circle;Não Informado;Não Informado;Não Informado;CA;92880
79f41f4eec8ac29656ca8343cd88fbbefbbada4251896812a7bcef45de3b30b4;10002709;Albany;US;PO Box 99;Não Informado;Não Informado;Não Informado;OR;97321
abfd731196b1cffbf6ee6b9fcc394c0143bb198dfecf00265e68f5df9a485d29;10025049;Milwaukie;US;13270 SE Pheasant Court;Não Informado;Não Informado;Não Informado;OR;97222
c2ef774285ea9871e336d07c3e3f40c232a6977947412d83ab96b0cf13cf9fd0;10010882;"";"";"";"";"";"";"";""
6fc94f37fb6ad00c1c68f122c32a4078f6a82699735b935d0ce5d6d7a84d3359;10013080;"";"";"";"";"";"";"";""
74c3a52866158b7347178cdb29f093ce35b4fc485730ccd287272b81d0a42526;10024924;"";"";"";"";"";"";"";""
4dc411c65cac3ab5bc6dc038421792cdb2def90400a41c28ec8dae10abd896a2;10020663;Sparks;US;540 South Rock Boulevard;Não Informado;Não Informado;Não Informado;NV;89431
f2767262e868a5ee785316f3ba9e1310ac23342b4fe08473126810a2a744f819;10018603;Dubai;UK;PO Box 12932;Não Informado;Não Informado;Não Informado;Não Informado;Não Informado
d4e750df30c52de8e63e5059970e2ea8e7937847fb52430e8828798237319c83;10004245;Portland;US;4747 N Channel Ave;Não Informado;Não Informado;Não Informado;OR;97208-3591
0a073eb1f5dd3d9b882cbd820a6e56f8c06b261a4d5050eb0e5ce781554b7efd;10016047;Nashville;US;975 Main Street;Não Informado;Não Informado;Não Informado;TN;37206
0d4f3a997a1c574c31bf3bb803cab7ba8bbe9737e8e84704e948bf08ada0fe8a;10009985;West Jordan;US;PO Drawer 40;Não Informado;Não Informado;Não Informado;UT;84084
805a4f806e49cc54a51e06eaf5c747cfbcca170f8aa5016d08733e5eb7e3dfe9;10004302;Baton Rouge;US;9555 Airline Highway;Não Informado;Não Informado;Não Informado;LA;70815
a88fa3b592d290f9ebfd789ee7014666a85dbee895b68f3fd49ee5629a21606b;10011198;Framingham;US;703 Waverly Street;Route 135;Não Informado;Não Informado;MA;1702
7cbab6d149b6ce3718360239db63251c28f0454a9239c8b3b923f2f26cdc9bd5;10025560;Cramerton;US;125 Hampton Ct.;Não Informado;Não Informado;Não Informado;NC;28032
a9b7b5dfd764f1ef896899a76de0ebd0fdb2b7698478c508b3bdeaeae1410015;10009662;West Point;US;610 Garfield Avenue;Não Informado;Não Informado;Não Informado;PA;19486
f25dc91c554d725b7d24bcfc067db366037b393601fc12e59dbd0da539d484dd;10022423;Cincinnati;US;12110 Best Place;Não Informado;Não Informado;Não Informado;OH;45241
e5fe87443b4ca7567bebe8eea9c11e16219a1d810360cd0f089131a6d5b3aeb5;10022167;Georgetown;AU;PO Box 10361;Não Informado;Não Informado;Não Informado;Não Informado;Não Informado
3e988487d8c5d3bd3516bea7367ca8515ed6d4f838cdffb3e9142b54ecbcf785;10017054;Newport;US;7640 North Telegraph;Não Informado;Não Informado;Não Informado;MI;O
1c83289779bdd21ca16074b72280710e74101bfed781edaa556abaaafcfe1c30;10025269;Overland Park;US;Attention  Accounts Payable Department;PO Box 12990;Não Informado;Não Informado;KS;66282-2990
7fe2c90ac061ab5c5828360a109bf7a2d41ede68d6be94c3184f90d383cf11de;10002150;"";"";"";"";"";"";"";""
43587d22a87573db7a093049e88d9b579ece6fbb9df8c491e685ad402a85ee59;10025022;West Midlands;UK;Bromley St Lye Stourbridge;Não Informado;Não Informado;Não Informado;Não Informado;DY9 8HS
1dd5f51cf594f0ee852aec5d7e0d8c6c3f00b8856a70cbe295f330e848248777;10009645;"";"";"";"";"";"";"";""
6ee8e29328054b3b3a1844fbe099794e6f223be97decb9bf5cde98a62119429e;10013039;"";"";"";"";"";"";"";""
fa81ad218643508184fb5ac9c59dbcce7dd79f993fb7c2c3e049c2b8cf33ea8e;10011724;Ingersoll;CA;300 Ingersoll Street;PO Box 1005;Não Informado;Não Informado;ON;N5C 4A6
537fc2a964463687195aee8df0751ceba909d7612a80af3ef76a930fea88c20a;10004602;"";"";"";"";"";"";"";""
d55d1684c4fd8d5d574895b4725bd0dcefdd2a7c459333ea7b88e403d8f51c84;10021297;"";"";"";"";"";"";"";""
78e3ae017c6447e378945bc8c05dd78b933d9a8a1a6e3ae99d8c671c7485c75c;10023235;Houston;US;7600 South Santa Fe;Não Informado;Não Informado;Não Informado;TX;77061
2b69e392b63cf32241fefb9de6521672d6304dfdc0d374f17b97058491dfe0b3;10026365;"";"";"";"";"";"";"";""
88eb87620d37074b89a91459a586dfb56456ad3cc740f06753ec3856416d3357;10009863;Beijing 100088;UK;PO Box 065;Não Informado;Não Informado;Não Informado;Não Informado;Não Informado
a587523c926ac6e8c702ca18896c1bec42c09363e54a2b17c922573310110b79;10022678;Richmond;US;PO Box 24217;Não Informado;Não Informado;Não Informado;VA;23224
0129bd0a2f0d8c823619ea124c9d705d6a0ab2fb320ff5c2f5c85e9497a8429d;10024541;Bedford;US;Americas Body Company;PO Box 46539;Não Informado;Não Informado;OH;44146
f62b7abe121dfbabc18d3ad62bf096fcb22bfaa91c4ee13f084fa92f4ed72442;10025291;Dover;US;217 West 3rd Street;Não Informado;Não Informado;Não Informado;OH;44622
cd15ef4aaa830f68b51e6aafa7b11ec77cda16a3d6731917d2054bd6d7e460a3;10024499;Houston;US;8302 Jet Pilot;Não Informado;Não Informado;Não Informado;TX;77075
3434e2981a2d62e38af6ed8d6477b34fa4872d968f8b5064c4f11317b6bfab8c;10006848;Fredericksburg;US;1101A Potomac Avenue;Não Informado;Não Informado;Não Informado;VA;22405
6f3243d467d80d2eca5ccaf7353fc64904ddd9fe35b17c48f85f0dffd2a80d4f;10020515;"";"";"";"";"";"";"";""
d8232b81a2d43e0761b91db8d7ee0e84766c7655b361fb1080588182dd92008f;10012885;"";"";"";"";"";"";"";""
ccf5b11f8f9c4ad5d0512047055d3a22cd893df6a9fbcd20f57114cab2aca0d6;10021422;Brea;US;3251 East Imperial Highway;Distributor #1111190;Não Informado;Não Informado;CA;92621
613483d70330c480683bfeaad4e4ad5550bfc7e856c3889ae5fdb110fbcac370;10010897;Whitehouse;US;PO Box 588;Não Informado;Não Informado;Não Informado;TN;37188
de906a45ab6070ca9a4f935f36a7e1ced167b272d58e9e5e860a925b5d1cdc2c;10020306;"";"";"";"";"";"";"";""
b35f6576f8da0bfb749ebc30f152c375cf63a4c3f5f18ad595864530e02fe3c8;10021006;"";"";"";"";"";"";"";""
9d2b02bce263eee681e5fe2c37a5bb3efdb9e930bf2d44a0822fb0c68eecc60e;10000481;Chicago;US;Box 5516;Não Informado;Não Informado;Não Informado;IL;60680
45675d8ffd8493c7248ab1f9fab8f35640fb75fd0a3fea82bad3acdef7bc830a;10017036;Eagan;US;580 Yankee Doodle Rd Ste 1200;Não Informado;Não Informado;Não Informado;MN;55121
a08fe59fcfb77e657367c70b5b06bd4cbfa5187f5ca1fc94caab69e1be9785dd;10002136;"";"";"";"";"";"";"";""
a495affd2dbff1b649615fcbb0c9ecda2c914eb61b88344b82e93bedfdfabb1f;10025086;"";"";"";"";"";"";"";""
689618f95e996aa3eb33fceacd310b09643bb96ab6e005b047f4acc5d1de6793;10022456;Rancho Cordova;US;3340 A Sunrise Boulevard;Não Informado;Não Informado;Não Informado;CA;95742-7316
570d4f0662485383accf69ce53d0a7eec664e35ec0be53e67266c433162a694a;10018580;Beaumont;US;PO Box 790;Não Informado;Não Informado;Não Informado;TX;77704
f0415f099a8fd81f9e0a8ecc1a63d552cae9e6bd439341ed802018843b8da0f4;10023759;Birmingham;US;106 B David Green Road;Não Informado;Não Informado;Não Informado;AL;35244
4063ae08587a33e668782a74ca49a4c2bbebf15262a914d6ab1dde75dd923977;10019897;El Paso;US;7210 Gateway East;Não Informado;Não Informado;Não Informado;TX;79915
70a2fb5e84bb93543d3851b339b599685dda2224cd327d61170388683a96e1a6;10025052;Songtan SI;AU;150-3 Chilkei-Dong;Não Informado;Não Informado;Não Informado;Não Informado;459-050
66f65942eed11da37f4bbc21e54fcc474374d7753485c73826a0dff08a936dc6;10023757;"";"";"";"";"";"";"";""
df39e275af339bc88b00f7d33ba8e9a07cee0144974a2c8e6d5650244ab226e3;10009156;Attica;US;DBA Badlands Off Road Park;3968 North Xavier Road;Não Informado;Não Informado;IN;47918
d31b51d77be153bf41e3eb2aebbec3699849b8338204a276158c20b29e418b81;10019150;Jacksonville;US;Jacksonville PDC #21;Attention  Accounts Payable;PO Box 23017;Não Informado;FL;32241-3017
03f66cfea8ccc0b626c3611757482b3e8aad7f6844c5ccb66579d87cac8c7106;10001818;"";"";"";"";"";"";"";""
70555715293447cbb0626ed4fe4bc7560bbbb2af4e62c82e8d48a0c1980219ca;10020662;Jakarta Utara;AU;Kelapa Gading Kirana;Blok H13 Number 30-31;Não Informado;Não Informado;Não Informado;Não Informado
bf0f3192616feb76e2e08179642f5ab8d04be4906d187781f42daab7844c8481;10002144;"";"";"";"";"";"";"";""
84cde7173d2e34bbcfabcefae751a7c924c3e9d586cd69b8b3132bcfe7beccc9;10025039;Mentor;US;9049 Tyler Blvd.;Não Informado;Não Informado;Não Informado;OH;44060
669c7b6dda42f0b788d6d5697ab4204f796a8fe96709ae90d78568ce807531de;10021977;Overland Park;US;Attention  Accounts Payable Department;PO Box 12990;Não Informado;Não Informado;KS;66282-2990
124b26b3997ed560298c320de82e51e32dca1179b9585055ce4a8ca5af309041;10026081;Bremen;UK;Weser Ems Strasse 2-4;Não Informado;Não Informado;Não Informado;Não Informado;D-28390
a053afba5b8120c65e10d69a3dd02806c49623db7e816688023b11c775e13496;10011734;Atlanta;US;PO Box 19858 Station N;Não Informado;Não Informado;Não Informado;GA;30325-0858
